{"total_rows":11,"offset":0,"rows":[
{"id":"_design/lists","key":"_design/lists","value":{"rev":"7-684689ddbf6370bee370bb18c0382f59"},"doc":{"_id":"_design/lists","_rev":"7-684689ddbf6370bee370bb18c0382f59","language":"javascript","views":{"all":{"map":"function(doc) {\n  emit(doc.id, doc);\n}"},"postal_codes":{"map":"function(doc) {\n  pds = doc.postal_districts\n  for(i=0;i<pds.length;i++){\n    pcs = pds[i].postal_codes\n    for(j=0;j<pcs.length;j++){\n      data = { postal_name: pcs[j].postal_name, postal_code: pcs[j].postal_code, type: pcs[j].type, postal_district_id: pds[i].id}\n      emit(pcs[j].postal_code, data );\n    }\n  }\n}"},"postal_districts":{"map":"function(doc) {\n  pds = doc.postal_districts\n  for(i=0;i<pds.length;i++){\n    pd = pds[i]\n    emit(pd.id, {id: pd.id, name: pd.name, slug: pd.slug, key: pd.key } );\n  }\n}"}}}},
{"id":"bornholm","key":"bornholm","value":{"rev":"1-ac7def6742af1a0f9dabe19f4b40ad14"},"doc":{"_id":"bornholm","_rev":"1-ac7def6742af1a0f9dabe19f4b40ad14","type":"area","id":"bornholm","name":"Bornholm","postal_districts":[{"type":"postal_district","name":"Svaneke","id":"3740","postal_codes":[{"postal_name":"Svaneke","postal_code":"3740","type":"postal_code"}],"slug":"3740-svaneke","key":"svaneke"},{"type":"postal_district","name":"Østermarie","id":"3751","postal_codes":[{"postal_name":"Østermarie","postal_code":"3751","type":"postal_code"}],"slug":"3751-ostermarie","key":"ostermarie"},{"type":"postal_district","name":"Allinge","id":"3770","postal_codes":[{"postal_name":"Allinge","postal_code":"3770","type":"postal_code"}],"slug":"3770-allinge","key":"allinge"},{"type":"postal_district","name":"Klemensker","id":"3782","postal_codes":[{"postal_name":"Klemensker","postal_code":"3782","type":"postal_code"}],"slug":"3782-klemensker","key":"klemensker"},{"type":"postal_district","name":"Gudhjem","id":"3760","postal_codes":[{"postal_name":"Gudhjem","postal_code":"3760","type":"postal_code"}],"slug":"3760-gudhjem","key":"gudhjem"},{"type":"postal_district","name":"Hasle","id":"3790","postal_codes":[{"postal_name":"Hasle","postal_code":"3790","type":"postal_code"}],"slug":"3790-hasle","key":"hasle"},{"type":"postal_district","name":"Neksø","id":"3730","postal_codes":[{"postal_name":"Nexø","postal_code":"3730","type":"postal_code"}],"slug":"3730-nekso","key":"nekso"},{"type":"postal_district","name":"Rønne","id":"3700","postal_codes":[{"postal_name":"Rønne","postal_code":"3700","type":"postal_code"}],"slug":"3700-ronne","key":"ronne"},{"type":"postal_district","name":"Aakirkeby","id":"3720","postal_codes":[{"postal_name":"Aakirkeby","postal_code":"3720","type":"postal_code"}],"slug":"3720-aakirkeby","key":"aakirkeby"}],"slug":"bornholm"}},
{"id":"fyn","key":"fyn","value":{"rev":"1-5e9369770f1dd40b8d4ed790c6129414"},"doc":{"_id":"fyn","_rev":"1-5e9369770f1dd40b8d4ed790c6129414","type":"area","id":"fyn","name":"Fyn","postal_districts":[{"type":"postal_district","name":"Odense NØ","id":"5240","postal_codes":[{"postal_name":"Odense NØ","postal_code":"5240","type":"postal_code"}],"slug":"5240-odense-no","key":"odense-no"},{"type":"postal_district","name":"Marslev","id":"5290","postal_codes":[{"postal_name":"Marslev","postal_code":"5290","type":"postal_code"}],"slug":"5290-marslev","key":"marslev"},{"type":"postal_district","name":"Munkebo","id":"5330","postal_codes":[{"postal_name":"Munkebo","postal_code":"5330","type":"postal_code"}],"slug":"5330-munkebo","key":"munkebo"},{"type":"postal_district","name":"Rynkeby","id":"5350","postal_codes":[{"postal_name":"Rynkeby","postal_code":"5350","type":"postal_code"}],"slug":"5350-rynkeby","key":"rynkeby"},{"type":"postal_district","name":"Mesinge","id":"5370","postal_codes":[{"postal_name":"Mesinge","postal_code":"5370","type":"postal_code"}],"slug":"5370-mesinge","key":"mesinge"},{"type":"postal_district","name":"Dalby","id":"5380","postal_codes":[{"postal_name":"Dalby","postal_code":"5380","type":"postal_code"}],"slug":"5380-dalby","key":"dalby"},{"type":"postal_district","name":"Martofte","id":"5390","postal_codes":[{"postal_name":"Martofte","postal_code":"5390","type":"postal_code"}],"slug":"5390-martofte","key":"martofte"},{"type":"postal_district","name":"Morud","id":"5462","postal_codes":[{"postal_name":"Morud","postal_code":"5462","type":"postal_code"}],"slug":"5462-morud","key":"morud"},{"type":"postal_district","name":"Harndrup","id":"5463","postal_codes":[{"postal_name":"Harndrup","postal_code":"5463","type":"postal_code"}],"slug":"5463-harndrup","key":"harndrup"},{"type":"postal_district","name":"Brenderup Fyn","id":"5464","postal_codes":[{"postal_name":"Brenderup Fyn","postal_code":"5464","type":"postal_code"}],"slug":"5464-brenderup-fyn","key":"brenderup-fyn"},{"type":"postal_district","name":"Veflinge","id":"5474","postal_codes":[{"postal_name":"Veflinge","postal_code":"5474","type":"postal_code"}],"slug":"5474-veflinge","key":"veflinge"},{"type":"postal_district","name":"Skamby","id":"5485","postal_codes":[{"postal_name":"Skamby","postal_code":"5485","type":"postal_code"}],"slug":"5485-skamby","key":"skamby"},{"type":"postal_district","name":"Blommenslyst","id":"5491","postal_codes":[{"postal_name":"Blommenslyst","postal_code":"5491","type":"postal_code"}],"slug":"5491-blommenslyst","key":"blommenslyst"},{"type":"postal_district","name":"Nørre Aaby","id":"5580","postal_codes":[{"postal_name":"Nørre Aaby","postal_code":"5580","type":"postal_code"}],"slug":"5580-norre-aaby","key":"norre-aaby"},{"type":"postal_district","name":"Gelsted","id":"5591","postal_codes":[{"postal_name":"Gelsted","postal_code":"5591","type":"postal_code"}],"slug":"5591-gelsted","key":"gelsted"},{"type":"postal_district","name":"Ebberup","id":"5631","postal_codes":[{"postal_name":"Ebberup","postal_code":"5631","type":"postal_code"}],"slug":"5631-ebberup","key":"ebberup"},{"type":"postal_district","name":"Millinge","id":"5642","postal_codes":[{"postal_name":"Millinge","postal_code":"5642","type":"postal_code"}],"slug":"5642-millinge","key":"millinge"},{"type":"postal_district","name":"Broby","id":"5672","postal_codes":[{"postal_name":"Broby","postal_code":"5672","type":"postal_code"}],"slug":"5672-broby","key":"broby"},{"type":"postal_district","name":"Vester Skerninge","id":"5762","postal_codes":[{"postal_name":"Vester Skerninge","postal_code":"5762","type":"postal_code"}],"slug":"5762-vester-skerninge","key":"vester-skerninge"},{"type":"postal_district","name":"Kværndrup","id":"5772","postal_codes":[{"postal_name":"Kværndrup","postal_code":"5772","type":"postal_code"}],"slug":"5772-kvaerndrup","key":"kvaerndrup"},{"type":"postal_district","name":"Ørbæk","id":"5853","postal_codes":[{"postal_name":"Ørbæk","postal_code":"5853","type":"postal_code"}],"slug":"5853-orbaek","key":"orbaek"},{"type":"postal_district","name":"Gislev","id":"5854","postal_codes":[{"postal_name":"Gislev","postal_code":"5854","type":"postal_code"}],"slug":"5854-gislev","key":"gislev"},{"type":"postal_district","name":"Ferritslev Fyn","id":"5863","postal_codes":[{"postal_name":"Ferritslev Fyn","postal_code":"5863","type":"postal_code"}],"slug":"5863-ferritslev-fyn","key":"ferritslev-fyn"},{"type":"postal_district","name":"Frørup","id":"5871","postal_codes":[{"postal_name":"Frørup","postal_code":"5871","type":"postal_code"}],"slug":"5871-frorup","key":"frorup"},{"type":"postal_district","name":"Hesselager","id":"5874","postal_codes":[{"postal_name":"Hesselager","postal_code":"5874","type":"postal_code"}],"slug":"5874-hesselager","key":"hesselager"},{"type":"postal_district","name":"Skårup Fyn","id":"5881","postal_codes":[{"postal_name":"Skårup Fyn","postal_code":"5881","type":"postal_code"}],"slug":"5881-skaarup-fyn","key":"skaarup-fyn"},{"type":"postal_district","name":"Vejstrup","id":"5882","postal_codes":[{"postal_name":"Vejstrup","postal_code":"5882","type":"postal_code"}],"slug":"5882-vejstrup","key":"vejstrup"},{"type":"postal_district","name":"Oure","id":"5883","postal_codes":[{"postal_name":"Oure","postal_code":"5883","type":"postal_code"}],"slug":"5883-oure","key":"oure"},{"type":"postal_district","name":"Gudme","id":"5884","postal_codes":[{"postal_name":"Gudme","postal_code":"5884","type":"postal_code"}],"slug":"5884-gudme","key":"gudme"},{"type":"postal_district","name":"Agedrup","id":"5320","postal_codes":[{"postal_name":"Agedrup","postal_code":"5320","type":"postal_code"}],"slug":"5320-agedrup","key":"agedrup"},{"type":"postal_district","name":"Ejby","id":"5592","postal_codes":[{"postal_name":"Ejby","postal_code":"5592","type":"postal_code"}],"slug":"5592-ejby","key":"ejby"},{"type":"postal_district","name":"Ryslinge","id":"5856","postal_codes":[{"postal_name":"Ryslinge","postal_code":"5856","type":"postal_code"}],"slug":"5856-ryslinge","key":"ryslinge"},{"type":"postal_district","name":"Glamsbjerg","id":"5620","postal_codes":[{"postal_name":"Glamsbjerg","postal_code":"5620","type":"postal_code"}],"slug":"5620-glamsbjerg","key":"glamsbjerg"},{"type":"postal_district","name":"Assens","id":"5610","postal_codes":[{"postal_name":"Assens","postal_code":"5610","type":"postal_code"}],"slug":"5610-assens","key":"assens"},{"type":"postal_district","name":"Kerteminde","id":"5300","postal_codes":[{"postal_name":"Kerteminde","postal_code":"5300","type":"postal_code"}],"slug":"5300-kerteminde","key":"kerteminde"},{"type":"postal_district","name":"Stenstrup","id":"5771","postal_codes":[{"postal_name":"Stenstrup","postal_code":"5771","type":"postal_code"}],"slug":"5771-stenstrup","key":"stenstrup"},{"type":"postal_district","name":"Odense NV","id":"5210","postal_codes":[{"postal_name":"Odense NV","postal_code":"5210","type":"postal_code"}],"slug":"5210-odense-nv","key":"odense-nv"},{"type":"postal_district","name":"Asperup","id":"5466","postal_codes":[{"postal_name":"Asperup","postal_code":"5466","type":"postal_code"}],"slug":"5466-asperup","key":"asperup"},{"type":"postal_district","name":"Søndersø","id":"5471","postal_codes":[{"postal_name":"Søndersø","postal_code":"5471","type":"postal_code"}],"slug":"5471-sonderso","key":"sonderso"},{"type":"postal_district","name":"Gudbjerg Sydfyn","id":"5892","postal_codes":[{"postal_name":"Gudbjerg Sydfyn","postal_code":"5892","type":"postal_code"}],"slug":"5892-gudbjerg-sydfyn","key":"gudbjerg-sydfyn"},{"type":"postal_district","name":"Humble","id":"5932","postal_codes":[{"postal_name":"Humble","postal_code":"5932","type":"postal_code"}],"slug":"5932-humble","key":"humble"},{"type":"postal_district","name":"Bagenkop","id":"5935","postal_codes":[{"postal_name":"Bagenkop","postal_code":"5935","type":"postal_code"}],"slug":"5935-bagenkop","key":"bagenkop"},{"type":"postal_district","name":"Tranekær","id":"5953","postal_codes":[{"postal_name":"Tranekær","postal_code":"5953","type":"postal_code"}],"slug":"5953-tranekaer","key":"tranekaer"},{"type":"postal_district","name":"Marstal","id":"5960","postal_codes":[{"postal_name":"Marstal","postal_code":"5960","type":"postal_code"}],"slug":"5960-marstal","key":"marstal"},{"type":"postal_district","name":"Ærøskøbing","id":"5970","postal_codes":[{"postal_name":"Ærøskøbing","postal_code":"5970","type":"postal_code"}],"slug":"5970-aeroskobing","key":"aeroskobing"},{"type":"postal_district","name":"Faaborg","id":"5600","postal_codes":[{"postal_name":"Faaborg","postal_code":"5600","type":"postal_code"}],"slug":"5600-faaborg","key":"faaborg"},{"type":"postal_district","name":"Tommerup","id":"5690","postal_codes":[{"postal_name":"Tommerup","postal_code":"5690","type":"postal_code"}],"slug":"5690-tommerup","key":"tommerup"},{"type":"postal_district","name":"Søby Ærø","id":"5985","postal_codes":[{"postal_name":"Søby Ærø","postal_code":"5985","type":"postal_code"}],"slug":"5985-soby-aero","key":"soby-aero"},{"type":"postal_district","name":"Otterup","id":"5450","postal_codes":[{"postal_name":"Otterup","postal_code":"5450","type":"postal_code"}],"slug":"5450-otterup","key":"otterup"},{"type":"postal_district","name":"Langeskov","id":"5550","postal_codes":[{"postal_name":"Langeskov","postal_code":"5550","type":"postal_code"}],"slug":"5550-langeskov","key":"langeskov"},{"type":"postal_district","name":"Vissenbjerg","id":"5492","postal_codes":[{"postal_name":"Vissenbjerg","postal_code":"5492","type":"postal_code"}],"slug":"5492-vissenbjerg","key":"vissenbjerg"},{"type":"postal_district","name":"Svendborg","id":"5700","postal_codes":[{"postal_name":"Svendborg","postal_code":"5700","type":"postal_code"}],"slug":"5700-svendborg","key":"svendborg"},{"type":"postal_district","name":"Årslev","id":"5792","postal_codes":[{"postal_name":"Årslev","postal_code":"5792","type":"postal_code"}],"slug":"5792-aarslev","key":"aarslev"},{"type":"postal_district","name":"Bogense","id":"5400","postal_codes":[{"postal_name":"Bogense","postal_code":"5400","type":"postal_code"}],"slug":"5400-bogense","key":"bogense"},{"type":"postal_district","name":"Odense V","id":"5200","postal_codes":[{"postal_name":"Odense V","postal_code":"5200","type":"postal_code"}],"slug":"5200-odense-v","key":"odense-v"},{"type":"postal_district","name":"Aarup","id":"5560","postal_codes":[{"postal_name":"Aarup","postal_code":"5560","type":"postal_code"}],"slug":"5560-aarup","key":"aarup"},{"type":"postal_district","name":"Ringe","id":"5750","postal_codes":[{"postal_name":"Ringe","postal_code":"5750","type":"postal_code"}],"slug":"5750-ringe","key":"ringe"},{"type":"postal_district","name":"Ullerslev","id":"5540","postal_codes":[{"postal_name":"Ullerslev","postal_code":"5540","type":"postal_code"}],"slug":"5540-ullerslev","key":"ullerslev"},{"type":"postal_district","name":"Middelfart","id":"5500","postal_codes":[{"postal_name":"Middelfart","postal_code":"5500","type":"postal_code"}],"slug":"5500-middelfart","key":"middelfart"},{"type":"postal_district","name":"Odense SØ","id":"5220","postal_codes":[{"postal_name":"Odense SØ","postal_code":"5220","type":"postal_code"}],"slug":"5220-odense-so","key":"odense-so"},{"type":"postal_district","name":"Nyborg","id":"5800","postal_codes":[{"postal_name":"Nyborg","postal_code":"5800","type":"postal_code"}],"slug":"5800-nyborg","key":"nyborg"},{"type":"postal_district","name":"Odense M","id":"5230","postal_codes":[{"postal_name":"Odense M","postal_code":"5230","type":"postal_code"}],"slug":"5230-odense-m","key":"odense-m"},{"type":"postal_district","name":"Haarby","id":"5683","postal_codes":[{"postal_name":"Haarby","postal_code":"5683","type":"postal_code"}],"slug":"5683-haarby","key":"haarby"},{"type":"postal_district","name":"Rudkøbing","id":"5900","postal_codes":[{"postal_name":"Rudkøbing","postal_code":"5900","type":"postal_code"}],"slug":"5900-rudkobing","key":"rudkobing"},{"type":"postal_district","name":"Odense SV","id":"5250","postal_codes":[{"postal_name":"Odense SV","postal_code":"5250","type":"postal_code"}],"slug":"5250-odense-sv","key":"odense-sv"},{"type":"postal_district","name":"Odense N","id":"5270","postal_codes":[{"postal_name":"Odense N","postal_code":"5270","type":"postal_code"}],"slug":"5270-odense-n","key":"odense-n"},{"type":"postal_district","name":"Odense S","id":"5260","postal_codes":[{"postal_name":"Odense S","postal_code":"5260","type":"postal_code"}],"slug":"5260-odense-s","key":"odense-s"},{"type":"postal_district","name":"Odense C","id":"5000","postal_codes":[{"postal_name":"Odense C","postal_code":"5000","type":"postal_code"}],"slug":"5000-odense-c","key":"odense-c"}],"slug":"fyn"}},
{"id":"kbh","key":"kbh","value":{"rev":"1-a003914979f3e93abeb084a6108a1d5d"},"doc":{"_id":"kbh","_rev":"1-a003914979f3e93abeb084a6108a1d5d","type":"area","id":"kbh","name":"Storkøbenhavn","postal_districts":[{"type":"postal_district","name":"Brøndby Strand","id":"2660","postal_codes":[{"postal_name":"Brøndby Strand","postal_code":"2660","type":"postal_code"}],"slug":"2660-brondby-strand","key":"brondby-strand"},{"type":"postal_district","name":"Glostrup","id":"2600","postal_codes":[{"postal_name":"Glostrup","postal_code":"2600","type":"postal_code"}],"slug":"2600-glostrup","key":"glostrup"},{"type":"postal_district","name":"Skovlunde","id":"2740","postal_codes":[{"postal_name":"Skovlunde","postal_code":"2740","type":"postal_code"}],"slug":"2740-skovlunde","key":"skovlunde"},{"type":"postal_district","name":"Klampenborg","id":"2930","postal_codes":[{"postal_name":"Klampenborg","postal_code":"2930","type":"postal_code"}],"slug":"2930-klampenborg","key":"klampenborg"},{"type":"postal_district","name":"Greve","id":"2670","postal_codes":[{"postal_name":"Greve","postal_code":"2670","type":"postal_code"}],"slug":"2670-greve","key":"greve"},{"type":"postal_district","name":"København Ø","id":"2100","postal_codes":[{"postal_name":"København Ø","postal_code":"2100","type":"postal_code"}],"slug":"2100-kobenhavn-o","key":"kobenhavn-o"},{"type":"postal_district","name":"Charlottenlund","id":"2920","postal_codes":[{"postal_name":"Charlottenlund","postal_code":"2920","type":"postal_code"}],"slug":"2920-charlottenlund","key":"charlottenlund"},{"type":"postal_district","name":"Albertslund","id":"2620","postal_codes":[{"postal_name":"Albertslund","postal_code":"2620","type":"postal_code"}],"slug":"2620-albertslund","key":"albertslund"},{"type":"postal_district","name":"Dyssegård","id":"2870","postal_codes":[{"postal_name":"Dyssegård","postal_code":"2870","type":"postal_code"}],"slug":"2870-dyssegaard","key":"dyssegaard"},{"type":"postal_district","name":"Kongens Lyngby","id":"2800","postal_codes":[{"postal_name":"Kgs. Lyngby","postal_code":"2800","type":"postal_code"}],"slug":"2800-kongens-lyngby","key":"kongens-lyngby"},{"type":"postal_district","name":"Virum","id":"2830","postal_codes":[{"postal_name":"Virum","postal_code":"2830","type":"postal_code"}],"slug":"2830-virum","key":"virum"},{"type":"postal_district","name":"Brønshøj","id":"2700","postal_codes":[{"postal_name":"Brønshøj","postal_code":"2700","type":"postal_code"}],"slug":"2700-bronshoj","key":"bronshoj"},{"type":"postal_district","name":"Ishøj","id":"2635","postal_codes":[{"postal_name":"Ishøj","postal_code":"2635","type":"postal_code"}],"slug":"2635-ishoj","key":"ishoj"},{"type":"postal_district","name":"Vallensbæk","id":"2625","postal_codes":[{"postal_name":"Vallensbæk","postal_code":"2625","type":"postal_code"}],"slug":"2625-vallensbaek","key":"vallensbaek"},{"type":"postal_district","name":"Karlslunde","id":"2690","postal_codes":[{"postal_name":"Karlslunde","postal_code":"2690","type":"postal_code"}],"slug":"2690-karlslunde","key":"karlslunde"},{"type":"postal_district","name":"Bagsværd","id":"2880","postal_codes":[{"postal_name":"Bagsværd","postal_code":"2880","type":"postal_code"}],"slug":"2880-bagsvaerd","key":"bagsvaerd"},{"type":"postal_district","name":"Hvidovre","id":"2650","postal_codes":[{"postal_name":"Hvidovre","postal_code":"2650","type":"postal_code"}],"slug":"2650-hvidovre","key":"hvidovre"},{"type":"postal_district","name":"København SV","id":"2450","postal_codes":[{"postal_name":"København SV","postal_code":"2450","type":"postal_code"}],"slug":"2450-kobenhavn-sv","key":"kobenhavn-sv"},{"type":"postal_district","name":"Valby","id":"2500","postal_codes":[{"postal_name":"Valby","postal_code":"2500","type":"postal_code"}],"slug":"2500-valby","key":"valby"},{"type":"postal_district","name":"Dragør","id":"2791","postal_codes":[{"postal_name":"Dragør","postal_code":"2791","type":"postal_code"}],"slug":"2791-dragor","key":"dragor"},{"type":"postal_district","name":"Hellerup","id":"2900","postal_codes":[{"postal_name":"Hellerup","postal_code":"2900","type":"postal_code"}],"slug":"2900-hellerup","key":"hellerup"},{"type":"postal_district","name":"Frederiksberg C","id":"1800","postal_codes":[{"postal_name":"Frederiksberg C","postal_code":"1800","type":"postal_code"},{"postal_name":"Frederiksberg C","postal_code":"1801","type":"postal_code"},{"postal_name":"Frederiksberg C","postal_code":"1802","type":"postal_code"},{"postal_name":"Frederiksberg C","postal_code":"1803","type":"postal_code"},{"postal_name":"Frederiksberg C","postal_code":"1804","type":"postal_code"},{"postal_name":"Frederiksberg C","postal_code":"1805","type":"postal_code"},{"postal_name":"Frederiksberg C","postal_code":"1806","type":"postal_code"},{"postal_name":"Frederiksberg C","postal_code":"1807","type":"postal_code"},{"postal_name":"Frederiksberg C","postal_code":"1808","type":"postal_code"},{"postal_name":"Frederiksberg C","postal_code":"1809","type":"postal_code"},{"postal_name":"Frederiksberg C","postal_code":"1810","type":"postal_code"},{"postal_name":"Frederiksberg C","postal_code":"1811","type":"postal_code"},{"postal_name":"Frederiksberg C","postal_code":"1812","type":"postal_code"},{"postal_name":"Frederiksberg C","postal_code":"1813","type":"postal_code"},{"postal_name":"Frederiksberg C","postal_code":"1814","type":"postal_code"},{"postal_name":"Frederiksberg C","postal_code":"1815","type":"postal_code"},{"postal_name":"Frederiksberg C","postal_code":"1816","type":"postal_code"},{"postal_name":"Frederiksberg C","postal_code":"1817","type":"postal_code"},{"postal_name":"Frederiksberg C","postal_code":"1818","type":"postal_code"},{"postal_name":"Frederiksberg C","postal_code":"1819","type":"postal_code"},{"postal_name":"Frederiksberg C","postal_code":"1820","type":"postal_code"},{"postal_name":"Frederiksberg C","postal_code":"1822","type":"postal_code"},{"postal_name":"Frederiksberg C","postal_code":"1823","type":"postal_code"},{"postal_name":"Frederiksberg C","postal_code":"1824","type":"postal_code"},{"postal_name":"Frederiksberg C","postal_code":"1825","type":"postal_code"},{"postal_name":"Frederiksberg C","postal_code":"1826","type":"postal_code"},{"postal_name":"Frederiksberg C","postal_code":"1827","type":"postal_code"},{"postal_name":"Frederiksberg C","postal_code":"1828","type":"postal_code"},{"postal_name":"Frederiksberg C","postal_code":"1829","type":"postal_code"},{"postal_name":"Frederiksberg C","postal_code":"1850","type":"postal_code"},{"postal_name":"Frederiksberg C","postal_code":"1851","type":"postal_code"},{"postal_name":"Frederiksberg C","postal_code":"1852","type":"postal_code"},{"postal_name":"Frederiksberg C","postal_code":"1853","type":"postal_code"},{"postal_name":"Frederiksberg C","postal_code":"1854","type":"postal_code"},{"postal_name":"Frederiksberg C","postal_code":"1855","type":"postal_code"},{"postal_name":"Frederiksberg C","postal_code":"1856","type":"postal_code"},{"postal_name":"Frederiksberg C","postal_code":"1857","type":"postal_code"},{"postal_name":"Frederiksberg C","postal_code":"1860","type":"postal_code"},{"postal_name":"Frederiksberg C","postal_code":"1861","type":"postal_code"},{"postal_name":"Frederiksberg C","postal_code":"1862","type":"postal_code"},{"postal_name":"Frederiksberg C","postal_code":"1863","type":"postal_code"},{"postal_name":"Frederiksberg C","postal_code":"1864","type":"postal_code"},{"postal_name":"Frederiksberg C","postal_code":"1865","type":"postal_code"},{"postal_name":"Frederiksberg C","postal_code":"1866","type":"postal_code"},{"postal_name":"Frederiksberg C","postal_code":"1867","type":"postal_code"},{"postal_name":"Frederiksberg C","postal_code":"1868","type":"postal_code"},{"postal_name":"Frederiksberg C","postal_code":"1870","type":"postal_code"},{"postal_name":"Frederiksberg C","postal_code":"1871","type":"postal_code"},{"postal_name":"Frederiksberg C","postal_code":"1872","type":"postal_code"},{"postal_name":"Frederiksberg C","postal_code":"1873","type":"postal_code"},{"postal_name":"Frederiksberg C","postal_code":"1874","type":"postal_code"},{"postal_name":"Frederiksberg C","postal_code":"1875","type":"postal_code"},{"postal_name":"Frederiksberg C","postal_code":"1876","type":"postal_code"},{"postal_name":"Frederiksberg C","postal_code":"1877","type":"postal_code"},{"postal_name":"Frederiksberg C","postal_code":"1878","type":"postal_code"},{"postal_name":"Frederiksberg C","postal_code":"1879","type":"postal_code"},{"postal_name":"Frederiksberg C","postal_code":"1900","type":"postal_code"},{"postal_name":"Frederiksberg C","postal_code":"1901","type":"postal_code"},{"postal_name":"Frederiksberg C","postal_code":"1902","type":"postal_code"},{"postal_name":"Frederiksberg C","postal_code":"1903","type":"postal_code"},{"postal_name":"Frederiksberg C","postal_code":"1904","type":"postal_code"},{"postal_name":"Frederiksberg C","postal_code":"1905","type":"postal_code"},{"postal_name":"Frederiksberg C","postal_code":"1906","type":"postal_code"},{"postal_name":"Frederiksberg C","postal_code":"1908","type":"postal_code"},{"postal_name":"Frederiksberg C","postal_code":"1909","type":"postal_code"},{"postal_name":"Frederiksberg C","postal_code":"1910","type":"postal_code"},{"postal_name":"Frederiksberg C","postal_code":"1911","type":"postal_code"},{"postal_name":"Frederiksberg C","postal_code":"1912","type":"postal_code"},{"postal_name":"Frederiksberg C","postal_code":"1913","type":"postal_code"},{"postal_name":"Frederiksberg C","postal_code":"1914","type":"postal_code"},{"postal_name":"Frederiksberg C","postal_code":"1915","type":"postal_code"},{"postal_name":"Frederiksberg C","postal_code":"1916","type":"postal_code"},{"postal_name":"Frederiksberg C","postal_code":"1917","type":"postal_code"},{"postal_name":"Frederiksberg C","postal_code":"1920","type":"postal_code"},{"postal_name":"Frederiksberg C","postal_code":"1921","type":"postal_code"},{"postal_name":"Frederiksberg C","postal_code":"1922","type":"postal_code"},{"postal_name":"Frederiksberg C","postal_code":"1923","type":"postal_code"},{"postal_name":"Frederiksberg C","postal_code":"1924","type":"postal_code"},{"postal_name":"Frederiksberg C","postal_code":"1925","type":"postal_code"},{"postal_name":"Frederiksberg C","postal_code":"1926","type":"postal_code"},{"postal_name":"Frederiksberg C","postal_code":"1927","type":"postal_code"},{"postal_name":"Frederiksberg C","postal_code":"1928","type":"postal_code"},{"postal_name":"Frederiksberg C","postal_code":"1950","type":"postal_code"},{"postal_name":"Frederiksberg C","postal_code":"1951","type":"postal_code"},{"postal_name":"Frederiksberg C","postal_code":"1952","type":"postal_code"},{"postal_name":"Frederiksberg C","postal_code":"1953","type":"postal_code"},{"postal_name":"Frederiksberg C","postal_code":"1954","type":"postal_code"},{"postal_name":"Frederiksberg C","postal_code":"1955","type":"postal_code"},{"postal_name":"Frederiksberg C","postal_code":"1956","type":"postal_code"},{"postal_name":"Frederiksberg C","postal_code":"1957","type":"postal_code"},{"postal_name":"Frederiksberg C","postal_code":"1958","type":"postal_code"},{"postal_name":"Frederiksberg C","postal_code":"1959","type":"postal_code"},{"postal_name":"Frederiksberg C","postal_code":"1960","type":"postal_code"},{"postal_name":"Frederiksberg C","postal_code":"1961","type":"postal_code"},{"postal_name":"Frederiksberg C","postal_code":"1962","type":"postal_code"},{"postal_name":"Frederiksberg C","postal_code":"1963","type":"postal_code"},{"postal_name":"Frederiksberg C","postal_code":"1964","type":"postal_code"},{"postal_name":"Frederiksberg C","postal_code":"1965","type":"postal_code"},{"postal_name":"Frederiksberg C","postal_code":"1966","type":"postal_code"},{"postal_name":"Frederiksberg C","postal_code":"1967","type":"postal_code"},{"postal_name":"Frederiksberg C","postal_code":"1970","type":"postal_code"},{"postal_name":"Frederiksberg C","postal_code":"1971","type":"postal_code"},{"postal_name":"Frederiksberg C","postal_code":"1972","type":"postal_code"},{"postal_name":"Frederiksberg C","postal_code":"1973","type":"postal_code"},{"postal_name":"Frederiksberg C","postal_code":"1974","type":"postal_code"}],"slug":"1800-1999-frederiksberg-c","key":"frederiksberg-c"},{"type":"postal_district","name":"Søborg","id":"2860","postal_codes":[{"postal_name":"Søborg","postal_code":"2860","type":"postal_code"}],"slug":"2860-soborg","key":"soborg"},{"type":"postal_district","name":"København NV","id":"2400","postal_codes":[{"postal_name":"København NV","postal_code":"2400","type":"postal_code"}],"slug":"2400-kobenhavn-nv","key":"kobenhavn-nv"},{"type":"postal_district","name":"København N","id":"2200","postal_codes":[{"postal_name":"København N","postal_code":"2200","type":"postal_code"}],"slug":"2200-kobenhavn-n","key":"kobenhavn-n"},{"type":"postal_district","name":"København V","id":"1500","postal_codes":[{"postal_name":"København V","postal_code":"1550","type":"postal_code"},{"postal_name":"København V","postal_code":"1551","type":"postal_code"},{"postal_name":"København V","postal_code":"1552","type":"postal_code"},{"postal_name":"København V","postal_code":"1553","type":"postal_code"},{"postal_name":"København V","postal_code":"1554","type":"postal_code"},{"postal_name":"København V","postal_code":"1555","type":"postal_code"},{"postal_name":"København V","postal_code":"1556","type":"postal_code"},{"postal_name":"København V","postal_code":"1557","type":"postal_code"},{"postal_name":"København V","postal_code":"1558","type":"postal_code"},{"postal_name":"København V","postal_code":"1559","type":"postal_code"},{"postal_name":"København V","postal_code":"1560","type":"postal_code"},{"postal_name":"København V","postal_code":"1561","type":"postal_code"},{"postal_name":"København V","postal_code":"1562","type":"postal_code"},{"postal_name":"København V","postal_code":"1563","type":"postal_code"},{"postal_name":"København V","postal_code":"1564","type":"postal_code"},{"postal_name":"København V","postal_code":"1567","type":"postal_code"},{"postal_name":"København V","postal_code":"1568","type":"postal_code"},{"postal_name":"København V","postal_code":"1569","type":"postal_code"},{"postal_name":"København V","postal_code":"1570","type":"postal_code"},{"postal_name":"København V","postal_code":"1571","type":"postal_code"},{"postal_name":"København V","postal_code":"1572","type":"postal_code"},{"postal_name":"København V","postal_code":"1573","type":"postal_code"},{"postal_name":"København V","postal_code":"1574","type":"postal_code"},{"postal_name":"København V","postal_code":"1575","type":"postal_code"},{"postal_name":"København V","postal_code":"1576","type":"postal_code"},{"postal_name":"København V","postal_code":"1577","type":"postal_code"},{"postal_name":"København V","postal_code":"1600","type":"postal_code"},{"postal_name":"København V","postal_code":"1601","type":"postal_code"},{"postal_name":"København V","postal_code":"1602","type":"postal_code"},{"postal_name":"København V","postal_code":"1603","type":"postal_code"},{"postal_name":"København V","postal_code":"1604","type":"postal_code"},{"postal_name":"København V","postal_code":"1605","type":"postal_code"},{"postal_name":"København V","postal_code":"1606","type":"postal_code"},{"postal_name":"København V","postal_code":"1607","type":"postal_code"},{"postal_name":"København V","postal_code":"1608","type":"postal_code"},{"postal_name":"København V","postal_code":"1609","type":"postal_code"},{"postal_name":"København V","postal_code":"1610","type":"postal_code"},{"postal_name":"København V","postal_code":"1611","type":"postal_code"},{"postal_name":"København V","postal_code":"1612","type":"postal_code"},{"postal_name":"København V","postal_code":"1613","type":"postal_code"},{"postal_name":"København V","postal_code":"1614","type":"postal_code"},{"postal_name":"København V","postal_code":"1615","type":"postal_code"},{"postal_name":"København V","postal_code":"1616","type":"postal_code"},{"postal_name":"København V","postal_code":"1617","type":"postal_code"},{"postal_name":"København V","postal_code":"1618","type":"postal_code"},{"postal_name":"København V","postal_code":"1619","type":"postal_code"},{"postal_name":"København V","postal_code":"1620","type":"postal_code"},{"postal_name":"København V","postal_code":"1621","type":"postal_code"},{"postal_name":"København V","postal_code":"1622","type":"postal_code"},{"postal_name":"København V","postal_code":"1623","type":"postal_code"},{"postal_name":"København V","postal_code":"1624","type":"postal_code"},{"postal_name":"København V","postal_code":"1631","type":"postal_code"},{"postal_name":"København V","postal_code":"1632","type":"postal_code"},{"postal_name":"København V","postal_code":"1633","type":"postal_code"},{"postal_name":"København V","postal_code":"1634","type":"postal_code"},{"postal_name":"København V","postal_code":"1635","type":"postal_code"},{"postal_name":"København V","postal_code":"1650","type":"postal_code"},{"postal_name":"København V","postal_code":"1651","type":"postal_code"},{"postal_name":"København V","postal_code":"1652","type":"postal_code"},{"postal_name":"København V","postal_code":"1653","type":"postal_code"},{"postal_name":"København V","postal_code":"1654","type":"postal_code"},{"postal_name":"København V","postal_code":"1655","type":"postal_code"},{"postal_name":"København V","postal_code":"1656","type":"postal_code"},{"postal_name":"København V","postal_code":"1657","type":"postal_code"},{"postal_name":"København V","postal_code":"1658","type":"postal_code"},{"postal_name":"København V","postal_code":"1659","type":"postal_code"},{"postal_name":"København V","postal_code":"1660","type":"postal_code"},{"postal_name":"København V","postal_code":"1661","type":"postal_code"},{"postal_name":"København V","postal_code":"1662","type":"postal_code"},{"postal_name":"København V","postal_code":"1663","type":"postal_code"},{"postal_name":"København V","postal_code":"1664","type":"postal_code"},{"postal_name":"København V","postal_code":"1665","type":"postal_code"},{"postal_name":"København V","postal_code":"1666","type":"postal_code"},{"postal_name":"København V","postal_code":"1667","type":"postal_code"},{"postal_name":"København V","postal_code":"1668","type":"postal_code"},{"postal_name":"København V","postal_code":"1669","type":"postal_code"},{"postal_name":"København V","postal_code":"1670","type":"postal_code"},{"postal_name":"København V","postal_code":"1671","type":"postal_code"},{"postal_name":"København V","postal_code":"1672","type":"postal_code"},{"postal_name":"København V","postal_code":"1673","type":"postal_code"},{"postal_name":"København V","postal_code":"1674","type":"postal_code"},{"postal_name":"København V","postal_code":"1675","type":"postal_code"},{"postal_name":"København V","postal_code":"1676","type":"postal_code"},{"postal_name":"København V","postal_code":"1677","type":"postal_code"},{"postal_name":"København V","postal_code":"1699","type":"postal_code"},{"postal_name":"København V","postal_code":"1700","type":"postal_code"},{"postal_name":"København V","postal_code":"1701","type":"postal_code"},{"postal_name":"København V","postal_code":"1702","type":"postal_code"},{"postal_name":"København V","postal_code":"1703","type":"postal_code"},{"postal_name":"København V","postal_code":"1704","type":"postal_code"},{"postal_name":"København V","postal_code":"1705","type":"postal_code"},{"postal_name":"København V","postal_code":"1706","type":"postal_code"},{"postal_name":"København V","postal_code":"1707","type":"postal_code"},{"postal_name":"København V","postal_code":"1708","type":"postal_code"},{"postal_name":"København V","postal_code":"1709","type":"postal_code"},{"postal_name":"København V","postal_code":"1710","type":"postal_code"},{"postal_name":"København V","postal_code":"1711","type":"postal_code"},{"postal_name":"København V","postal_code":"1712","type":"postal_code"},{"postal_name":"København V","postal_code":"1714","type":"postal_code"},{"postal_name":"København V","postal_code":"1715","type":"postal_code"},{"postal_name":"København V","postal_code":"1716","type":"postal_code"},{"postal_name":"København V","postal_code":"1717","type":"postal_code"},{"postal_name":"København V","postal_code":"1718","type":"postal_code"},{"postal_name":"København V","postal_code":"1719","type":"postal_code"},{"postal_name":"København V","postal_code":"1720","type":"postal_code"},{"postal_name":"København V","postal_code":"1721","type":"postal_code"},{"postal_name":"København V","postal_code":"1722","type":"postal_code"},{"postal_name":"København V","postal_code":"1723","type":"postal_code"},{"postal_name":"København V","postal_code":"1724","type":"postal_code"},{"postal_name":"København V","postal_code":"1725","type":"postal_code"},{"postal_name":"København V","postal_code":"1726","type":"postal_code"},{"postal_name":"København V","postal_code":"1727","type":"postal_code"},{"postal_name":"København V","postal_code":"1728","type":"postal_code"},{"postal_name":"København V","postal_code":"1729","type":"postal_code"},{"postal_name":"København V","postal_code":"1730","type":"postal_code"},{"postal_name":"København V","postal_code":"1731","type":"postal_code"},{"postal_name":"København V","postal_code":"1732","type":"postal_code"},{"postal_name":"København V","postal_code":"1733","type":"postal_code"},{"postal_name":"København V","postal_code":"1734","type":"postal_code"},{"postal_name":"København V","postal_code":"1735","type":"postal_code"},{"postal_name":"København V","postal_code":"1736","type":"postal_code"},{"postal_name":"København V","postal_code":"1737","type":"postal_code"},{"postal_name":"København V","postal_code":"1738","type":"postal_code"},{"postal_name":"København V","postal_code":"1739","type":"postal_code"},{"postal_name":"København V","postal_code":"1749","type":"postal_code"},{"postal_name":"København V","postal_code":"1750","type":"postal_code"},{"postal_name":"København V","postal_code":"1751","type":"postal_code"},{"postal_name":"København V","postal_code":"1752","type":"postal_code"},{"postal_name":"København V","postal_code":"1753","type":"postal_code"},{"postal_name":"København V","postal_code":"1754","type":"postal_code"},{"postal_name":"København V","postal_code":"1755","type":"postal_code"},{"postal_name":"København V","postal_code":"1756","type":"postal_code"},{"postal_name":"København V","postal_code":"1757","type":"postal_code"},{"postal_name":"København V","postal_code":"1758","type":"postal_code"},{"postal_name":"København V","postal_code":"1759","type":"postal_code"},{"postal_name":"København V","postal_code":"1760","type":"postal_code"},{"postal_name":"København V","postal_code":"1761","type":"postal_code"},{"postal_name":"København V","postal_code":"1762","type":"postal_code"},{"postal_name":"København V","postal_code":"1763","type":"postal_code"},{"postal_name":"København V","postal_code":"1764","type":"postal_code"},{"postal_name":"København V","postal_code":"1765","type":"postal_code"},{"postal_name":"København V","postal_code":"1766","type":"postal_code"},{"postal_name":"København V","postal_code":"1770","type":"postal_code"},{"postal_name":"København V","postal_code":"1771","type":"postal_code"},{"postal_name":"København V","postal_code":"1772","type":"postal_code"},{"postal_name":"København V","postal_code":"1773","type":"postal_code"},{"postal_name":"København V","postal_code":"1774","type":"postal_code"},{"postal_name":"København V","postal_code":"1775","type":"postal_code"},{"postal_name":"København V","postal_code":"1777","type":"postal_code"},{"postal_name":"København V","postal_code":"1799","type":"postal_code"}],"slug":"1500-1799-kobenhavn-v","key":"kobenhavn-v"},{"type":"postal_district","name":"Frederiksberg","id":"2000","postal_codes":[{"postal_name":"Frederiksberg","postal_code":"2000","type":"postal_code"}],"slug":"2000-frederiksberg","key":"frederiksberg"},{"type":"postal_district","name":"Brøndby","id":"2605","postal_codes":[{"postal_name":"Brøndby","postal_code":"2605","type":"postal_code"}],"slug":"2605-brondby","key":"brondby"},{"type":"postal_district","name":"Vallensbæk Strand","id":"2665","postal_codes":[{"postal_name":"Vallensbæk Strand","postal_code":"2665","type":"postal_code"}],"slug":"2665-vallensbaek-strand","key":"vallensbaek-strand"},{"type":"postal_district","name":"Taastrup","id":"2630","postal_codes":[{"postal_name":"Taastrup","postal_code":"2630","type":"postal_code"}],"slug":"2630-taastrup","key":"taastrup"},{"type":"postal_district","name":"Rødovre","id":"2610","postal_codes":[{"postal_name":"Rødovre","postal_code":"2610","type":"postal_code"}],"slug":"2610-rodovre","key":"rodovre"},{"type":"postal_district","name":"Vanløse","id":"2720","postal_codes":[{"postal_name":"Vanløse","postal_code":"2720","type":"postal_code"}],"slug":"2720-vanlose","key":"vanlose"},{"type":"postal_district","name":"Ballerup","id":"2750","postal_codes":[{"postal_name":"Ballerup","postal_code":"2750","type":"postal_code"}],"slug":"2750-ballerup","key":"ballerup"},{"type":"postal_district","name":"Herlev","id":"2730","postal_codes":[{"postal_name":"Herlev","postal_code":"2730","type":"postal_code"}],"slug":"2730-herlev","key":"herlev"},{"type":"postal_district","name":"Kastrup","id":"2770","postal_codes":[{"postal_name":"Kastrup","postal_code":"2770","type":"postal_code"}],"slug":"2770-kastrup","key":"kastrup"},{"type":"postal_district","name":"Gentofte","id":"2820","postal_codes":[{"postal_name":"Gentofte","postal_code":"2820","type":"postal_code"}],"slug":"2820-gentofte","key":"gentofte"},{"type":"postal_district","name":"København S","id":"2300","postal_codes":[{"postal_name":"København S","postal_code":"2300","type":"postal_code"}],"slug":"2300-kobenhavn-s","key":"kobenhavn-s"},{"type":"postal_district","name":"København K","id":"1000","postal_codes":[{"postal_name":"København K","postal_code":"1050","type":"postal_code"},{"postal_name":"København K","postal_code":"1051","type":"postal_code"},{"postal_name":"København K","postal_code":"1052","type":"postal_code"},{"postal_name":"København K","postal_code":"1053","type":"postal_code"},{"postal_name":"København K","postal_code":"1054","type":"postal_code"},{"postal_name":"København K","postal_code":"1055","type":"postal_code"},{"postal_name":"København K","postal_code":"1056","type":"postal_code"},{"postal_name":"København K","postal_code":"1057","type":"postal_code"},{"postal_name":"København K","postal_code":"1058","type":"postal_code"},{"postal_name":"København K","postal_code":"1059","type":"postal_code"},{"postal_name":"København K","postal_code":"1060","type":"postal_code"},{"postal_name":"København K","postal_code":"1061","type":"postal_code"},{"postal_name":"København K","postal_code":"1062","type":"postal_code"},{"postal_name":"København K","postal_code":"1063","type":"postal_code"},{"postal_name":"København K","postal_code":"1064","type":"postal_code"},{"postal_name":"København K","postal_code":"1065","type":"postal_code"},{"postal_name":"København K","postal_code":"1066","type":"postal_code"},{"postal_name":"København K","postal_code":"1067","type":"postal_code"},{"postal_name":"København K","postal_code":"1068","type":"postal_code"},{"postal_name":"København K","postal_code":"1069","type":"postal_code"},{"postal_name":"København K","postal_code":"1070","type":"postal_code"},{"postal_name":"København K","postal_code":"1071","type":"postal_code"},{"postal_name":"København K","postal_code":"1072","type":"postal_code"},{"postal_name":"København K","postal_code":"1073","type":"postal_code"},{"postal_name":"København K","postal_code":"1074","type":"postal_code"},{"postal_name":"København K","postal_code":"1100","type":"postal_code"},{"postal_name":"København K","postal_code":"1101","type":"postal_code"},{"postal_name":"København K","postal_code":"1102","type":"postal_code"},{"postal_name":"København K","postal_code":"1103","type":"postal_code"},{"postal_name":"København K","postal_code":"1104","type":"postal_code"},{"postal_name":"København K","postal_code":"1105","type":"postal_code"},{"postal_name":"København K","postal_code":"1106","type":"postal_code"},{"postal_name":"København K","postal_code":"1107","type":"postal_code"},{"postal_name":"København K","postal_code":"1110","type":"postal_code"},{"postal_name":"København K","postal_code":"1111","type":"postal_code"},{"postal_name":"København K","postal_code":"1112","type":"postal_code"},{"postal_name":"København K","postal_code":"1113","type":"postal_code"},{"postal_name":"København K","postal_code":"1114","type":"postal_code"},{"postal_name":"København K","postal_code":"1115","type":"postal_code"},{"postal_name":"København K","postal_code":"1116","type":"postal_code"},{"postal_name":"København K","postal_code":"1117","type":"postal_code"},{"postal_name":"København K","postal_code":"1118","type":"postal_code"},{"postal_name":"København K","postal_code":"1119","type":"postal_code"},{"postal_name":"København K","postal_code":"1120","type":"postal_code"},{"postal_name":"København K","postal_code":"1121","type":"postal_code"},{"postal_name":"København K","postal_code":"1122","type":"postal_code"},{"postal_name":"København K","postal_code":"1123","type":"postal_code"},{"postal_name":"København K","postal_code":"1124","type":"postal_code"},{"postal_name":"København K","postal_code":"1125","type":"postal_code"},{"postal_name":"København K","postal_code":"1126","type":"postal_code"},{"postal_name":"København K","postal_code":"1127","type":"postal_code"},{"postal_name":"København K","postal_code":"1128","type":"postal_code"},{"postal_name":"København K","postal_code":"1129","type":"postal_code"},{"postal_name":"København K","postal_code":"1130","type":"postal_code"},{"postal_name":"København K","postal_code":"1131","type":"postal_code"},{"postal_name":"København K","postal_code":"1150","type":"postal_code"},{"postal_name":"København K","postal_code":"1151","type":"postal_code"},{"postal_name":"København K","postal_code":"1152","type":"postal_code"},{"postal_name":"København K","postal_code":"1153","type":"postal_code"},{"postal_name":"København K","postal_code":"1154","type":"postal_code"},{"postal_name":"København K","postal_code":"1155","type":"postal_code"},{"postal_name":"København K","postal_code":"1156","type":"postal_code"},{"postal_name":"København K","postal_code":"1157","type":"postal_code"},{"postal_name":"København K","postal_code":"1158","type":"postal_code"},{"postal_name":"København K","postal_code":"1159","type":"postal_code"},{"postal_name":"København K","postal_code":"1160","type":"postal_code"},{"postal_name":"København K","postal_code":"1161","type":"postal_code"},{"postal_name":"København K","postal_code":"1164","type":"postal_code"},{"postal_name":"København K","postal_code":"1165","type":"postal_code"},{"postal_name":"København K","postal_code":"1166","type":"postal_code"},{"postal_name":"København K","postal_code":"1167","type":"postal_code"},{"postal_name":"København K","postal_code":"1168","type":"postal_code"},{"postal_name":"København K","postal_code":"1169","type":"postal_code"},{"postal_name":"København K","postal_code":"1170","type":"postal_code"},{"postal_name":"København K","postal_code":"1171","type":"postal_code"},{"postal_name":"København K","postal_code":"1172","type":"postal_code"},{"postal_name":"København K","postal_code":"1173","type":"postal_code"},{"postal_name":"København K","postal_code":"1174","type":"postal_code"},{"postal_name":"København K","postal_code":"1175","type":"postal_code"},{"postal_name":"København K","postal_code":"1200","type":"postal_code"},{"postal_name":"København K","postal_code":"1201","type":"postal_code"},{"postal_name":"København K","postal_code":"1202","type":"postal_code"},{"postal_name":"København K","postal_code":"1203","type":"postal_code"},{"postal_name":"København K","postal_code":"1204","type":"postal_code"},{"postal_name":"København K","postal_code":"1205","type":"postal_code"},{"postal_name":"København K","postal_code":"1206","type":"postal_code"},{"postal_name":"København K","postal_code":"1207","type":"postal_code"},{"postal_name":"København K","postal_code":"1208","type":"postal_code"},{"postal_name":"København K","postal_code":"1209","type":"postal_code"},{"postal_name":"København K","postal_code":"1210","type":"postal_code"},{"postal_name":"København K","postal_code":"1211","type":"postal_code"},{"postal_name":"København K","postal_code":"1212","type":"postal_code"},{"postal_name":"København K","postal_code":"1213","type":"postal_code"},{"postal_name":"København K","postal_code":"1214","type":"postal_code"},{"postal_name":"København K","postal_code":"1215","type":"postal_code"},{"postal_name":"København K","postal_code":"1216","type":"postal_code"},{"postal_name":"København K","postal_code":"1218","type":"postal_code"},{"postal_name":"København K","postal_code":"1219","type":"postal_code"},{"postal_name":"København K","postal_code":"1220","type":"postal_code"},{"postal_name":"København K","postal_code":"1221","type":"postal_code"},{"postal_name":"København K","postal_code":"1250","type":"postal_code"},{"postal_name":"København K","postal_code":"1251","type":"postal_code"},{"postal_name":"København K","postal_code":"1252","type":"postal_code"},{"postal_name":"København K","postal_code":"1253","type":"postal_code"},{"postal_name":"København K","postal_code":"1254","type":"postal_code"},{"postal_name":"København K","postal_code":"1255","type":"postal_code"},{"postal_name":"København K","postal_code":"1256","type":"postal_code"},{"postal_name":"København K","postal_code":"1257","type":"postal_code"},{"postal_name":"København K","postal_code":"1259","type":"postal_code"},{"postal_name":"København K","postal_code":"1260","type":"postal_code"},{"postal_name":"København K","postal_code":"1261","type":"postal_code"},{"postal_name":"København K","postal_code":"1263","type":"postal_code"},{"postal_name":"København K","postal_code":"1264","type":"postal_code"},{"postal_name":"København K","postal_code":"1265","type":"postal_code"},{"postal_name":"København K","postal_code":"1266","type":"postal_code"},{"postal_name":"København K","postal_code":"1267","type":"postal_code"},{"postal_name":"København K","postal_code":"1268","type":"postal_code"},{"postal_name":"København K","postal_code":"1270","type":"postal_code"},{"postal_name":"København K","postal_code":"1271","type":"postal_code"},{"postal_name":"København K","postal_code":"1300","type":"postal_code"},{"postal_name":"København K","postal_code":"1301","type":"postal_code"},{"postal_name":"København K","postal_code":"1302","type":"postal_code"},{"postal_name":"København K","postal_code":"1303","type":"postal_code"},{"postal_name":"København K","postal_code":"1304","type":"postal_code"},{"postal_name":"København K","postal_code":"1306","type":"postal_code"},{"postal_name":"København K","postal_code":"1307","type":"postal_code"},{"postal_name":"København K","postal_code":"1308","type":"postal_code"},{"postal_name":"København K","postal_code":"1309","type":"postal_code"},{"postal_name":"København K","postal_code":"1310","type":"postal_code"},{"postal_name":"København K","postal_code":"1311","type":"postal_code"},{"postal_name":"København K","postal_code":"1312","type":"postal_code"},{"postal_name":"København K","postal_code":"1313","type":"postal_code"},{"postal_name":"København K","postal_code":"1314","type":"postal_code"},{"postal_name":"København K","postal_code":"1315","type":"postal_code"},{"postal_name":"København K","postal_code":"1316","type":"postal_code"},{"postal_name":"København K","postal_code":"1317","type":"postal_code"},{"postal_name":"København K","postal_code":"1318","type":"postal_code"},{"postal_name":"København K","postal_code":"1319","type":"postal_code"},{"postal_name":"København K","postal_code":"1320","type":"postal_code"},{"postal_name":"København K","postal_code":"1321","type":"postal_code"},{"postal_name":"København K","postal_code":"1322","type":"postal_code"},{"postal_name":"København K","postal_code":"1323","type":"postal_code"},{"postal_name":"København K","postal_code":"1324","type":"postal_code"},{"postal_name":"København K","postal_code":"1325","type":"postal_code"},{"postal_name":"København K","postal_code":"1326","type":"postal_code"},{"postal_name":"København K","postal_code":"1327","type":"postal_code"},{"postal_name":"København K","postal_code":"1328","type":"postal_code"},{"postal_name":"København K","postal_code":"1329","type":"postal_code"},{"postal_name":"København K","postal_code":"1350","type":"postal_code"},{"postal_name":"København K","postal_code":"1352","type":"postal_code"},{"postal_name":"København K","postal_code":"1353","type":"postal_code"},{"postal_name":"København K","postal_code":"1354","type":"postal_code"},{"postal_name":"København K","postal_code":"1355","type":"postal_code"},{"postal_name":"København K","postal_code":"1356","type":"postal_code"},{"postal_name":"København K","postal_code":"1357","type":"postal_code"},{"postal_name":"København K","postal_code":"1358","type":"postal_code"},{"postal_name":"København K","postal_code":"1359","type":"postal_code"},{"postal_name":"København K","postal_code":"1360","type":"postal_code"},{"postal_name":"København K","postal_code":"1361","type":"postal_code"},{"postal_name":"København K","postal_code":"1362","type":"postal_code"},{"postal_name":"København K","postal_code":"1363","type":"postal_code"},{"postal_name":"København K","postal_code":"1364","type":"postal_code"},{"postal_name":"København K","postal_code":"1365","type":"postal_code"},{"postal_name":"København K","postal_code":"1366","type":"postal_code"},{"postal_name":"København K","postal_code":"1367","type":"postal_code"},{"postal_name":"København K","postal_code":"1368","type":"postal_code"},{"postal_name":"København K","postal_code":"1369","type":"postal_code"},{"postal_name":"København K","postal_code":"1370","type":"postal_code"},{"postal_name":"København K","postal_code":"1371","type":"postal_code"},{"postal_name":"København K","postal_code":"1400","type":"postal_code"},{"postal_name":"København K","postal_code":"1401","type":"postal_code"},{"postal_name":"København K","postal_code":"1402","type":"postal_code"},{"postal_name":"København K","postal_code":"1403","type":"postal_code"},{"postal_name":"København K","postal_code":"1406","type":"postal_code"},{"postal_name":"København K","postal_code":"1407","type":"postal_code"},{"postal_name":"København K","postal_code":"1408","type":"postal_code"},{"postal_name":"København K","postal_code":"1409","type":"postal_code"},{"postal_name":"København K","postal_code":"1410","type":"postal_code"},{"postal_name":"København K","postal_code":"1411","type":"postal_code"},{"postal_name":"København K","postal_code":"1412","type":"postal_code"},{"postal_name":"København K","postal_code":"1413","type":"postal_code"},{"postal_name":"København K","postal_code":"1414","type":"postal_code"},{"postal_name":"København K","postal_code":"1415","type":"postal_code"},{"postal_name":"København K","postal_code":"1416","type":"postal_code"},{"postal_name":"København K","postal_code":"1417","type":"postal_code"},{"postal_name":"København K","postal_code":"1418","type":"postal_code"},{"postal_name":"København K","postal_code":"1419","type":"postal_code"},{"postal_name":"København K","postal_code":"1420","type":"postal_code"},{"postal_name":"København K","postal_code":"1421","type":"postal_code"},{"postal_name":"København K","postal_code":"1422","type":"postal_code"},{"postal_name":"København K","postal_code":"1423","type":"postal_code"},{"postal_name":"København K","postal_code":"1424","type":"postal_code"},{"postal_name":"København K","postal_code":"1425","type":"postal_code"},{"postal_name":"København K","postal_code":"1426","type":"postal_code"},{"postal_name":"København K","postal_code":"1427","type":"postal_code"},{"postal_name":"København K","postal_code":"1428","type":"postal_code"},{"postal_name":"København K","postal_code":"1429","type":"postal_code"},{"postal_name":"København K","postal_code":"1430","type":"postal_code"},{"postal_name":"København K","postal_code":"1432","type":"postal_code"},{"postal_name":"København K","postal_code":"1433","type":"postal_code"},{"postal_name":"København K","postal_code":"1434","type":"postal_code"},{"postal_name":"København K","postal_code":"1435","type":"postal_code"},{"postal_name":"København K","postal_code":"1436","type":"postal_code"},{"postal_name":"København K","postal_code":"1437","type":"postal_code"},{"postal_name":"København K","postal_code":"1438","type":"postal_code"},{"postal_name":"København K","postal_code":"1439","type":"postal_code"},{"postal_name":"København K","postal_code":"1440","type":"postal_code"},{"postal_name":"København K","postal_code":"1441","type":"postal_code"},{"postal_name":"København K","postal_code":"1450","type":"postal_code"},{"postal_name":"København K","postal_code":"1451","type":"postal_code"},{"postal_name":"København K","postal_code":"1452","type":"postal_code"},{"postal_name":"København K","postal_code":"1453","type":"postal_code"},{"postal_name":"København K","postal_code":"1454","type":"postal_code"},{"postal_name":"København K","postal_code":"1455","type":"postal_code"},{"postal_name":"København K","postal_code":"1456","type":"postal_code"},{"postal_name":"København K","postal_code":"1457","type":"postal_code"},{"postal_name":"København K","postal_code":"1458","type":"postal_code"},{"postal_name":"København K","postal_code":"1459","type":"postal_code"},{"postal_name":"København K","postal_code":"1460","type":"postal_code"},{"postal_name":"København K","postal_code":"1461","type":"postal_code"},{"postal_name":"København K","postal_code":"1462","type":"postal_code"},{"postal_name":"København K","postal_code":"1463","type":"postal_code"},{"postal_name":"København K","postal_code":"1464","type":"postal_code"},{"postal_name":"København K","postal_code":"1465","type":"postal_code"},{"postal_name":"København K","postal_code":"1466","type":"postal_code"},{"postal_name":"København K","postal_code":"1467","type":"postal_code"},{"postal_name":"København K","postal_code":"1468","type":"postal_code"},{"postal_name":"København K","postal_code":"1470","type":"postal_code"},{"postal_name":"København K","postal_code":"1471","type":"postal_code"},{"postal_name":"København K","postal_code":"1472","type":"postal_code"},{"postal_name":"København K","postal_code":"1473","type":"postal_code"}],"slug":"1000-1499-kobenhavn-k","key":"kobenhavn-k"}],"slug":"storkobenhavn"}},
{"id":"mvsj","key":"mvsj","value":{"rev":"1-84a6569f1cc6e2eca35affebcea40cac"},"doc":{"_id":"mvsj","_rev":"1-84a6569f1cc6e2eca35affebcea40cac","type":"area","id":"mvsj","name":"Midt- og Vestsjælland","postal_districts":[{"type":"postal_district","name":"Viby Sjælland","id":"4130","postal_codes":[{"postal_name":"Viby Sjælland","postal_code":"4130","type":"postal_code"}],"slug":"4130-viby-sjaelland","key":"viby-sjaelland"},{"type":"postal_district","name":"Herlufmagle","id":"4160","postal_codes":[{"postal_name":"Herlufmagle","postal_code":"4160","type":"postal_code"}],"slug":"4160-herlufmagle","key":"herlufmagle"},{"type":"postal_district","name":"Fjenneslev","id":"4173","postal_codes":[{"postal_name":"Fjenneslev","postal_code":"4173","type":"postal_code"}],"slug":"4173-fjenneslev","key":"fjenneslev"},{"type":"postal_district","name":"Jystrup Midtsj","id":"4174","postal_codes":[{"postal_name":"Jystrup Midtsj","postal_code":"4174","type":"postal_code"}],"slug":"4174-jystrup-midtsj","key":"jystrup-midtsj"},{"type":"postal_district","name":"Munke Bjergby","id":"4190","postal_codes":[{"postal_name":"Munke Bjergby","postal_code":"4190","type":"postal_code"}],"slug":"4190-munke-bjergby","key":"munke-bjergby"},{"type":"postal_district","name":"Vemmelev","id":"4241","postal_codes":[{"postal_name":"Vemmelev","postal_code":"4241","type":"postal_code"}],"slug":"4241-vemmelev","key":"vemmelev"},{"type":"postal_district","name":"Boeslunde","id":"4242","postal_codes":[{"postal_name":"Boeslunde","postal_code":"4242","type":"postal_code"}],"slug":"4242-boeslunde","key":"boeslunde"},{"type":"postal_district","name":"Rude","id":"4243","postal_codes":[{"postal_name":"Rude","postal_code":"4243","type":"postal_code"}],"slug":"4243-rude","key":"rude"},{"type":"postal_district","name":"Dalmose","id":"4261","postal_codes":[{"postal_name":"Dalmose","postal_code":"4261","type":"postal_code"}],"slug":"4261-dalmose","key":"dalmose"},{"type":"postal_district","name":"Ugerløse","id":"4350","postal_codes":[{"postal_name":"Ugerløse","postal_code":"4350","type":"postal_code"}],"slug":"4350-ugerlose","key":"ugerlose"},{"type":"postal_district","name":"Glumsø","id":"4171","postal_codes":[{"postal_name":"Glumsø","postal_code":"4171","type":"postal_code"}],"slug":"4171-glumso","key":"glumso"},{"type":"postal_district","name":"Stenlille","id":"4295","postal_codes":[{"postal_name":"Stenlille","postal_code":"4295","type":"postal_code"}],"slug":"4295-stenlille","key":"stenlille"},{"type":"postal_district","name":"Sandved","id":"4262","postal_codes":[{"postal_name":"Sandved","postal_code":"4262","type":"postal_code"}],"slug":"4262-sandved","key":"sandved"},{"type":"postal_district","name":"Snertinge","id":"4460","postal_codes":[{"postal_name":"Snertinge","postal_code":"4460","type":"postal_code"}],"slug":"4460-snertinge","key":"snertinge"},{"type":"postal_district","name":"Svebølle","id":"4470","postal_codes":[{"postal_name":"Svebølle","postal_code":"4470","type":"postal_code"}],"slug":"4470-svebolle","key":"svebolle"},{"type":"postal_district","name":"Kirke Eskilstrup","id":"4360","postal_codes":[{"postal_name":"Kirke Eskilstrup","postal_code":"4360","type":"postal_code"}],"slug":"4360-kirke-eskilstrup","key":"kirke-eskilstrup"},{"type":"postal_district","name":"Tølløse","id":"4340","postal_codes":[{"postal_name":"Tølløse","postal_code":"4340","type":"postal_code"}],"slug":"4340-tollose","key":"tollose"},{"type":"postal_district","name":"Gørlev","id":"4281","postal_codes":[{"postal_name":"Gørlev","postal_code":"4281","type":"postal_code"}],"slug":"4281-gorlev","key":"gorlev"},{"type":"postal_district","name":"Kirke Såby","id":"4060","postal_codes":[{"postal_name":"Kirke Såby","postal_code":"4060","type":"postal_code"}],"slug":"4060-kirke-saaby","key":"kirke-saaby"},{"type":"postal_district","name":"Store Fuglede","id":"4480","postal_codes":[{"postal_name":"Store Fuglede","postal_code":"4480","type":"postal_code"}],"slug":"4480-store-fuglede","key":"store-fuglede"},{"type":"postal_district","name":"Jerslev Sjælland","id":"4490","postal_codes":[{"postal_name":"Jerslev Sjælland","postal_code":"4490","type":"postal_code"}],"slug":"4490-jerslev-sjaelland","key":"jerslev-sjaelland"},{"type":"postal_district","name":"Gislinge","id":"4532","postal_codes":[{"postal_name":"Gislinge","postal_code":"4532","type":"postal_code"}],"slug":"4532-gislinge","key":"gislinge"},{"type":"postal_district","name":"Hørve","id":"4534","postal_codes":[{"postal_name":"Hørve","postal_code":"4534","type":"postal_code"}],"slug":"4534-horve","key":"horve"},{"type":"postal_district","name":"Vig","id":"4560","postal_codes":[{"postal_name":"Vig","postal_code":"4560","type":"postal_code"}],"slug":"4560-vig","key":"vig"},{"type":"postal_district","name":"Grevinge","id":"4571","postal_codes":[{"postal_name":"Grevinge","postal_code":"4571","type":"postal_code"}],"slug":"4571-grevinge","key":"grevinge"},{"type":"postal_district","name":"Nørre Asmindrup","id":"4572","postal_codes":[{"postal_name":"Nørre Asmindrup","postal_code":"4572","type":"postal_code"}],"slug":"4572-norre-asmindrup","key":"norre-asmindrup"},{"type":"postal_district","name":"Højby","id":"4573","postal_codes":[{"postal_name":"Højby","postal_code":"4573","type":"postal_code"}],"slug":"4573-hojby","key":"hojby"},{"type":"postal_district","name":"Rørvig","id":"4581","postal_codes":[{"postal_name":"Rørvig","postal_code":"4581","type":"postal_code"}],"slug":"4581-rorvig","key":"rorvig"},{"type":"postal_district","name":"Sjællands Odde","id":"4583","postal_codes":[{"postal_name":"Sjællands Odde","postal_code":"4583","type":"postal_code"}],"slug":"4583-sjaellands-odde","key":"sjaellands-odde"},{"type":"postal_district","name":"Føllenslev","id":"4591","postal_codes":[{"postal_name":"Føllenslev","postal_code":"4591","type":"postal_code"}],"slug":"4591-follenslev","key":"follenslev"},{"type":"postal_district","name":"Sejerø","id":"4592","postal_codes":[{"postal_name":"Sejerø","postal_code":"4592","type":"postal_code"}],"slug":"4592-sejero","key":"sejero"},{"type":"postal_district","name":"Eskebjerg","id":"4593","postal_codes":[{"postal_name":"Eskebjerg","postal_code":"4593","type":"postal_code"}],"slug":"4593-eskebjerg","key":"eskebjerg"},{"type":"postal_district","name":"Skibby","id":"4050","postal_codes":[{"postal_name":"Skibby","postal_code":"4050","type":"postal_code"}],"slug":"4050-skibby","key":"skibby"},{"type":"postal_district","name":"Bjæverskov","id":"4632","postal_codes":[{"postal_name":"Bjæverskov","postal_code":"4632","type":"postal_code"}],"slug":"4632-bjaeverskov","key":"bjaeverskov"},{"type":"postal_district","name":"Jyderup","id":"4450","postal_codes":[{"postal_name":"Jyderup","postal_code":"4450","type":"postal_code"}],"slug":"4450-jyderup","key":"jyderup"},{"type":"postal_district","name":"Asnæs","id":"4550","postal_codes":[{"postal_name":"Asnæs","postal_code":"4550","type":"postal_code"}],"slug":"4550-asnaes","key":"asnaes"},{"type":"postal_district","name":"Fårevejle","id":"4540","postal_codes":[{"postal_name":"Fårevejle","postal_code":"4540","type":"postal_code"}],"slug":"4540-faarevejle","key":"faarevejle"},{"type":"postal_district","name":"Nyrup","id":"4296","postal_codes":[{"postal_name":"Nyrup","postal_code":"4296","type":"postal_code"}],"slug":"4296-nyrup","key":"nyrup"},{"type":"postal_district","name":"Ringsted","id":"4100","postal_codes":[{"postal_name":"Ringsted","postal_code":"4100","type":"postal_code"}],"slug":"4100-ringsted","key":"ringsted"},{"type":"postal_district","name":"Nykøbing Sj","id":"4500","postal_codes":[{"postal_name":"Nykøbing Sj","postal_code":"4500","type":"postal_code"}],"slug":"4500-nykobing-sj","key":"nykobing-sj"},{"type":"postal_district","name":"Store Merløse","id":"4370","postal_codes":[{"postal_name":"Store Merløse","postal_code":"4370","type":"postal_code"}],"slug":"4370-store-merlose","key":"store-merlose"},{"type":"postal_district","name":"Gadstrup","id":"4621","postal_codes":[{"postal_name":"Gadstrup","postal_code":"4621","type":"postal_code"}],"slug":"4621-gadstrup","key":"gadstrup"},{"type":"postal_district","name":"Mørkøv","id":"4440","postal_codes":[{"postal_name":"Mørkøv","postal_code":"4440","type":"postal_code"}],"slug":"4440-morkov","key":"morkov"},{"type":"postal_district","name":"Dianalund","id":"4293","postal_codes":[{"postal_name":"Dianalund","postal_code":"4293","type":"postal_code"}],"slug":"4293-dianalund","key":"dianalund"},{"type":"postal_district","name":"Vipperød","id":"4390","postal_codes":[{"postal_name":"Vipperød","postal_code":"4390","type":"postal_code"}],"slug":"4390-vipperod","key":"vipperod"},{"type":"postal_district","name":"Lille Skensved","id":"4623","postal_codes":[{"postal_name":"Lille Skensved","postal_code":"4623","type":"postal_code"}],"slug":"4623-lille-skensved","key":"lille-skensved"},{"type":"postal_district","name":"Skælskør","id":"4230","postal_codes":[{"postal_name":"Skælskør","postal_code":"4230","type":"postal_code"}],"slug":"4230-skaelskor","key":"skaelskor"},{"type":"postal_district","name":"Høng","id":"4270","postal_codes":[{"postal_name":"Høng","postal_code":"4270","type":"postal_code"}],"slug":"4270-hong","key":"hong"},{"type":"postal_district","name":"Fuglebjerg","id":"4250","postal_codes":[{"postal_name":"Fuglebjerg","postal_code":"4250","type":"postal_code"}],"slug":"4250-fuglebjerg","key":"fuglebjerg"},{"type":"postal_district","name":"Ruds Vedby","id":"4291","postal_codes":[{"postal_name":"Ruds Vedby","postal_code":"4291","type":"postal_code"}],"slug":"4291-ruds-vedby","key":"ruds-vedby"},{"type":"postal_district","name":"Kirke Hyllinge","id":"4070","postal_codes":[{"postal_name":"Kirke Hyllinge","postal_code":"4070","type":"postal_code"}],"slug":"4070-kirke-hyllinge","key":"kirke-hyllinge"},{"type":"postal_district","name":"Havdrup","id":"4622","postal_codes":[{"postal_name":"Havdrup","postal_code":"4622","type":"postal_code"}],"slug":"4622-havdrup","key":"havdrup"},{"type":"postal_district","name":"Sorø","id":"4180","postal_codes":[{"postal_name":"Sorø","postal_code":"4180","type":"postal_code"}],"slug":"4180-soro","key":"soro"},{"type":"postal_district","name":"Jyllinge","id":"4040","postal_codes":[{"postal_name":"Jyllinge","postal_code":"4040","type":"postal_code"}],"slug":"4040-jyllinge","key":"jyllinge"},{"type":"postal_district","name":"Hvalsø","id":"4330","postal_codes":[{"postal_name":"Hvalsø","postal_code":"4330","type":"postal_code"}],"slug":"4330-hvalso","key":"hvalso"},{"type":"postal_district","name":"Karlslunde","id":"2690","postal_codes":[{"postal_name":"Karlslunde","postal_code":"2690","type":"postal_code"}],"slug":"2690-karlslunde","key":"karlslunde"},{"type":"postal_district","name":"Svinninge","id":"4520","postal_codes":[{"postal_name":"Svinninge","postal_code":"4520","type":"postal_code"}],"slug":"4520-svinninge","key":"svinninge"},{"type":"postal_district","name":"Solrød","id":"2680","postal_codes":[{"postal_name":"Solrød Strand","postal_code":"2680","type":"postal_code"}],"slug":"2680-solrod","key":"solrod"},{"type":"postal_district","name":"Korsør","id":"4220","postal_codes":[{"postal_name":"Korsør","postal_code":"4220","type":"postal_code"}],"slug":"4220-korsor","key":"korsor"},{"type":"postal_district","name":"Regstrup","id":"4420","postal_codes":[{"postal_name":"Regstrup","postal_code":"4420","type":"postal_code"}],"slug":"4420-regstrup","key":"regstrup"},{"type":"postal_district","name":"Tune","id":"4030","postal_codes":[{"postal_name":"Tune","postal_code":"4030","type":"postal_code"}],"slug":"4030-tune","key":"tune"},{"type":"postal_district","name":"Borup","id":"4140","postal_codes":[{"postal_name":"Borup","postal_code":"4140","type":"postal_code"}],"slug":"4140-borup","key":"borup"},{"type":"postal_district","name":"Roskilde","id":"4000","postal_codes":[{"postal_name":"Roskilde","postal_code":"4000","type":"postal_code"}],"slug":"4000-roskilde","key":"roskilde"},{"type":"postal_district","name":"Hedehusene","id":"2640","postal_codes":[{"postal_name":"Hedehusene","postal_code":"2640","type":"postal_code"}],"slug":"2640-hedehusene","key":"hedehusene"},{"type":"postal_district","name":"Holbæk","id":"4300","postal_codes":[{"postal_name":"Holbæk","postal_code":"4300","type":"postal_code"}],"slug":"4300-holbaek","key":"holbaek"},{"type":"postal_district","name":"Kalundborg","id":"4400","postal_codes":[{"postal_name":"Kalundborg","postal_code":"4400","type":"postal_code"}],"slug":"4400-kalundborg","key":"kalundborg"},{"type":"postal_district","name":"Lejre","id":"4320","postal_codes":[{"postal_name":"Lejre","postal_code":"4320","type":"postal_code"}],"slug":"4320-lejre","key":"lejre"},{"type":"postal_district","name":"Slagelse","id":"4200","postal_codes":[{"postal_name":"Slagelse","postal_code":"4200","type":"postal_code"}],"slug":"4200-slagelse","key":"slagelse"}],"slug":"midt-og-vestsjaelland"}},
{"id":"nordjl","key":"nordjl","value":{"rev":"1-2935a97382605d35971726fe0e932a16"},"doc":{"_id":"nordjl","_rev":"1-2935a97382605d35971726fe0e932a16","type":"area","id":"nordjl","name":"Nordjylland","postal_districts":[{"type":"postal_district","name":"Hanstholm","id":"7730","postal_codes":[{"postal_name":"Hanstholm","postal_code":"7730","type":"postal_code"}],"slug":"7730-hanstholm","key":"hanstholm"},{"type":"postal_district","name":"Frøstrup","id":"7741","postal_codes":[{"postal_name":"Frøstrup","postal_code":"7741","type":"postal_code"}],"slug":"7741-frostrup","key":"frostrup"},{"type":"postal_district","name":"Vesløs","id":"7742","postal_codes":[{"postal_name":"Vesløs","postal_code":"7742","type":"postal_code"}],"slug":"7742-veslos","key":"veslos"},{"type":"postal_district","name":"Bedsted Thy","id":"7755","postal_codes":[{"postal_name":"Bedsted Thy","postal_code":"7755","type":"postal_code"}],"slug":"7755-bedsted-thy","key":"bedsted-thy"},{"type":"postal_district","name":"Hurup Thy","id":"7760","postal_codes":[{"postal_name":"Hurup Thy","postal_code":"7760","type":"postal_code"}],"slug":"7760-hurup-thy","key":"hurup-thy"},{"type":"postal_district","name":"Vestervig","id":"7770","postal_codes":[{"postal_name":"Vestervig","postal_code":"7770","type":"postal_code"}],"slug":"7770-vestervig","key":"vestervig"},{"type":"postal_district","name":"Erslev","id":"7950","postal_codes":[{"postal_name":"Erslev","postal_code":"7950","type":"postal_code"}],"slug":"7950-erslev","key":"erslev"},{"type":"postal_district","name":"Karby","id":"7960","postal_codes":[{"postal_name":"Karby","postal_code":"7960","type":"postal_code"}],"slug":"7960-karby","key":"karby"},{"type":"postal_district","name":"Redsted M","id":"7970","postal_codes":[{"postal_name":"Redsted M","postal_code":"7970","type":"postal_code"}],"slug":"7970-redsted-m","key":"redsted-m"},{"type":"postal_district","name":"Vils","id":"7980","postal_codes":[{"postal_name":"Vils","postal_code":"7980","type":"postal_code"}],"slug":"7980-vils","key":"vils"},{"type":"postal_district","name":"Øster Assels","id":"7990","postal_codes":[{"postal_name":"Øster Assels","postal_code":"7990","type":"postal_code"}],"slug":"7990-oster-assels","key":"oster-assels"},{"type":"postal_district","name":"Skals","id":"8832","postal_codes":[{"postal_name":"Skals","postal_code":"8832","type":"postal_code"}],"slug":"8832-skals","key":"skals"},{"type":"postal_district","name":"Dronninglund","id":"9330","postal_codes":[{"postal_name":"Dronninglund","postal_code":"9330","type":"postal_code"}],"slug":"9330-dronninglund","key":"dronninglund"},{"type":"postal_district","name":"Thyholm","id":"7790","postal_codes":[{"postal_name":"Thyholm","postal_code":"7790","type":"postal_code"}],"slug":"7790-thyholm","key":"thyholm"},{"type":"postal_district","name":"Nykøbing M","id":"7900","postal_codes":[{"postal_name":"Nykøbing M","postal_code":"7900","type":"postal_code"}],"slug":"7900-nykobing-m","key":"nykobing-m"},{"type":"postal_district","name":"Snedsted","id":"7752","postal_codes":[{"postal_name":"Snedsted","postal_code":"7752","type":"postal_code"}],"slug":"7752-snedsted","key":"snedsted"},{"type":"postal_district","name":"Kongerslev","id":"9293","postal_codes":[{"postal_name":"Kongerslev","postal_code":"9293","type":"postal_code"}],"slug":"9293-kongerslev","key":"kongerslev"},{"type":"postal_district","name":"Asaa","id":"9340","postal_codes":[{"postal_name":"Asaa","postal_code":"9340","type":"postal_code"}],"slug":"9340-asaa","key":"asaa"},{"type":"postal_district","name":"Dybvad","id":"9352","postal_codes":[{"postal_name":"Dybvad","postal_code":"9352","type":"postal_code"}],"slug":"9352-dybvad","key":"dybvad"},{"type":"postal_district","name":"Gandrup","id":"9362","postal_codes":[{"postal_name":"Gandrup","postal_code":"9362","type":"postal_code"}],"slug":"9362-gandrup","key":"gandrup"},{"type":"postal_district","name":"Tylstrup","id":"9382","postal_codes":[{"postal_name":"Tylstrup","postal_code":"9382","type":"postal_code"}],"slug":"9382-tylstrup","key":"tylstrup"},{"type":"postal_district","name":"Blokhus","id":"9492","postal_codes":[{"postal_name":"Blokhus","postal_code":"9492","type":"postal_code"}],"slug":"9492-blokhus","key":"blokhus"},{"type":"postal_district","name":"Saltum","id":"9493","postal_codes":[{"postal_name":"Saltum","postal_code":"9493","type":"postal_code"}],"slug":"9493-saltum","key":"saltum"},{"type":"postal_district","name":"Arden","id":"9510","postal_codes":[{"postal_name":"Arden","postal_code":"9510","type":"postal_code"}],"slug":"9510-arden","key":"arden"},{"type":"postal_district","name":"Mariager","id":"9550","postal_codes":[{"postal_name":"Mariager","postal_code":"9550","type":"postal_code"}],"slug":"9550-mariager","key":"mariager"},{"type":"postal_district","name":"Bælum","id":"9574","postal_codes":[{"postal_name":"Bælum","postal_code":"9574","type":"postal_code"}],"slug":"9574-baelum","key":"baelum"},{"type":"postal_district","name":"Løkken","id":"9480","postal_codes":[{"postal_name":"Løkken","postal_code":"9480","type":"postal_code"}],"slug":"9480-lokken","key":"lokken"},{"type":"postal_district","name":"Vadum","id":"9430","postal_codes":[{"postal_name":"Vadum","postal_code":"9430","type":"postal_code"}],"slug":"9430-vadum","key":"vadum"},{"type":"postal_district","name":"Klarup","id":"9270","postal_codes":[{"postal_name":"Klarup","postal_code":"9270","type":"postal_code"}],"slug":"9270-klarup","key":"klarup"},{"type":"postal_district","name":"Suldrup","id":"9541","postal_codes":[{"postal_name":"Suldrup","postal_code":"9541","type":"postal_code"}],"slug":"9541-suldrup","key":"suldrup"},{"type":"postal_district","name":"Sulsted","id":"9381","postal_codes":[{"postal_name":"Sulsted","postal_code":"9381","type":"postal_code"}],"slug":"9381-sulsted","key":"sulsted"},{"type":"postal_district","name":"Vodskov","id":"9310","postal_codes":[{"postal_name":"Vodskov","postal_code":"9310","type":"postal_code"}],"slug":"9310-vodskov","key":"vodskov"},{"type":"postal_district","name":"Skørping","id":"9520","postal_codes":[{"postal_name":"Skørping","postal_code":"9520","type":"postal_code"}],"slug":"9520-skorping","key":"skorping"},{"type":"postal_district","name":"Hjallerup","id":"9320","postal_codes":[{"postal_name":"Hjallerup","postal_code":"9320","type":"postal_code"}],"slug":"9320-hjallerup","key":"hjallerup"},{"type":"postal_district","name":"Storvorde","id":"9280","postal_codes":[{"postal_name":"Storvorde","postal_code":"9280","type":"postal_code"}],"slug":"9280-storvorde","key":"storvorde"},{"type":"postal_district","name":"Sæby","id":"9300","postal_codes":[{"postal_name":"Sæby","postal_code":"9300","type":"postal_code"}],"slug":"9300-saeby","key":"saeby"},{"type":"postal_district","name":"Vrå","id":"9760","postal_codes":[{"postal_name":"Vrå","postal_code":"9760","type":"postal_code"}],"slug":"9760-vraa","key":"vraa"},{"type":"postal_district","name":"Farsø","id":"9640","postal_codes":[{"postal_name":"Farsø","postal_code":"9640","type":"postal_code"}],"slug":"9640-farso","key":"farso"},{"type":"postal_district","name":"Terndrup","id":"9575","postal_codes":[{"postal_name":"Terndrup","postal_code":"9575","type":"postal_code"}],"slug":"9575-terndrup","key":"terndrup"},{"type":"postal_district","name":"Ranum","id":"9681","postal_codes":[{"postal_name":"Ranum","postal_code":"9681","type":"postal_code"}],"slug":"9681-ranum","key":"ranum"},{"type":"postal_district","name":"Jerslev J","id":"9740","postal_codes":[{"postal_name":"Jerslev J","postal_code":"9740","type":"postal_code"}],"slug":"9740-jerslev-j","key":"jerslev-j"},{"type":"postal_district","name":"Tårs","id":"9830","postal_codes":[{"postal_name":"Tårs","postal_code":"9830","type":"postal_code"}],"slug":"9830-taars","key":"taars"},{"type":"postal_district","name":"Bindslev","id":"9881","postal_codes":[{"postal_name":"Bindslev","postal_code":"9881","type":"postal_code"}],"slug":"9881-bindslev","key":"bindslev"},{"type":"postal_district","name":"Læsø","id":"9940","postal_codes":[{"postal_name":"Læsø","postal_code":"9940","type":"postal_code"}],"slug":"9940-laeso","key":"laeso"},{"type":"postal_district","name":"Jerup","id":"9981","postal_codes":[{"postal_name":"Jerup","postal_code":"9981","type":"postal_code"}],"slug":"9981-jerup","key":"jerup"},{"type":"postal_district","name":"Ålbæk","id":"9982","postal_codes":[{"postal_name":"Ålbæk","postal_code":"9982","type":"postal_code"}],"slug":"9982-aalbaek","key":"aalbaek"},{"type":"postal_district","name":"Sindal","id":"9870","postal_codes":[{"postal_name":"Sindal","postal_code":"9870","type":"postal_code"}],"slug":"9870-sindal","key":"sindal"},{"type":"postal_district","name":"Strandby","id":"9970","postal_codes":[{"postal_name":"Strandby","postal_code":"9970","type":"postal_code"}],"slug":"9970-strandby","key":"strandby"},{"type":"postal_district","name":"Pandrup","id":"9490","postal_codes":[{"postal_name":"Pandrup","postal_code":"9490","type":"postal_code"}],"slug":"9490-pandrup","key":"pandrup"},{"type":"postal_district","name":"Gedsted","id":"9631","postal_codes":[{"postal_name":"Gedsted","postal_code":"9631","type":"postal_code"}],"slug":"9631-gedsted","key":"gedsted"},{"type":"postal_district","name":"Hirtshals","id":"9850","postal_codes":[{"postal_name":"Hirtshals","postal_code":"9850","type":"postal_code"}],"slug":"9850-hirtshals","key":"hirtshals"},{"type":"postal_district","name":"Skagen","id":"9990","postal_codes":[{"postal_name":"Skagen","postal_code":"9990","type":"postal_code"}],"slug":"9990-skagen","key":"skagen"},{"type":"postal_district","name":"Aalestrup","id":"9620","postal_codes":[{"postal_name":"Aalestrup","postal_code":"9620","type":"postal_code"}],"slug":"9620-aalestrup","key":"aalestrup"},{"type":"postal_district","name":"Aabybro","id":"9440","postal_codes":[{"postal_name":"Aabybro","postal_code":"9440","type":"postal_code"}],"slug":"9440-aabybro","key":"aabybro"},{"type":"postal_district","name":"Nibe","id":"9240","postal_codes":[{"postal_name":"Nibe","postal_code":"9240","type":"postal_code"}],"slug":"9240-nibe","key":"nibe"},{"type":"postal_district","name":"Vestbjerg","id":"9380","postal_codes":[{"postal_name":"Vestbjerg","postal_code":"9380","type":"postal_code"}],"slug":"9380-vestbjerg","key":"vestbjerg"},{"type":"postal_district","name":"Aalborg SØ","id":"9210","postal_codes":[{"postal_name":"Aalborg SØ","postal_code":"9210","type":"postal_code"}],"slug":"9210-aalborg-so","key":"aalborg-so"},{"type":"postal_district","name":"Brovst","id":"9460","postal_codes":[{"postal_name":"Brovst","postal_code":"9460","type":"postal_code"}],"slug":"9460-brovst","key":"brovst"},{"type":"postal_district","name":"Aars","id":"9600","postal_codes":[{"postal_name":"Aars","postal_code":"9600","type":"postal_code"}],"slug":"9600-aars","key":"aars"},{"type":"postal_district","name":"Hals","id":"9370","postal_codes":[{"postal_name":"Hals","postal_code":"9370","type":"postal_code"}],"slug":"9370-hals","key":"hals"},{"type":"postal_district","name":"Aalborg SV","id":"9200","postal_codes":[{"postal_name":"Aalborg SV","postal_code":"9200","type":"postal_code"}],"slug":"9200-aalborg-sv","key":"aalborg-sv"},{"type":"postal_district","name":"Møldrup","id":"9632","postal_codes":[{"postal_name":"Møldrup","postal_code":"9632","type":"postal_code"}],"slug":"9632-moldrup","key":"moldrup"},{"type":"postal_district","name":"Hobro","id":"9500","postal_codes":[{"postal_name":"Hobro","postal_code":"9500","type":"postal_code"}],"slug":"9500-hobro","key":"hobro"},{"type":"postal_district","name":"Aalborg Øst","id":"9220","postal_codes":[{"postal_name":"Aalborg Øst","postal_code":"9220","type":"postal_code"}],"slug":"9220-aalborg-ost","key":"aalborg-ost"},{"type":"postal_district","name":"Hjørring","id":"9800","postal_codes":[{"postal_name":"Hjørring","postal_code":"9800","type":"postal_code"}],"slug":"9800-hjorring","key":"hjorring"},{"type":"postal_district","name":"Nørager","id":"9610","postal_codes":[{"postal_name":"Nørager","postal_code":"9610","type":"postal_code"}],"slug":"9610-norager","key":"norager"},{"type":"postal_district","name":"Hadsund","id":"9560","postal_codes":[{"postal_name":"Hadsund","postal_code":"9560","type":"postal_code"}],"slug":"9560-hadsund","key":"hadsund"},{"type":"postal_district","name":"Østervrå","id":"9750","postal_codes":[{"postal_name":"Østervrå","postal_code":"9750","type":"postal_code"}],"slug":"9750-ostervraa","key":"ostervraa"},{"type":"postal_district","name":"Støvring","id":"9530","postal_codes":[{"postal_name":"Støvring","postal_code":"9530","type":"postal_code"}],"slug":"9530-stovring","key":"stovring"},{"type":"postal_district","name":"Svenstrup J","id":"9230","postal_codes":[{"postal_name":"Svenstrup J","postal_code":"9230","type":"postal_code"}],"slug":"9230-svenstrup-j","key":"svenstrup-j"},{"type":"postal_district","name":"Nørresundby","id":"9400","postal_codes":[{"postal_name":"Nørresundby","postal_code":"9400","type":"postal_code"}],"slug":"9400-norresundby","key":"norresundby"},{"type":"postal_district","name":"Brønderslev","id":"9700","postal_codes":[{"postal_name":"Brønderslev","postal_code":"9700","type":"postal_code"}],"slug":"9700-bronderslev","key":"bronderslev"},{"type":"postal_district","name":"Aalborg","id":"9000","postal_codes":[{"postal_name":"Aalborg","postal_code":"9000","type":"postal_code"}],"slug":"9000-aalborg","key":"aalborg"},{"type":"postal_district","name":"Gistrup","id":"9260","postal_codes":[{"postal_name":"Gistrup","postal_code":"9260","type":"postal_code"}],"slug":"9260-gistrup","key":"gistrup"},{"type":"postal_district","name":"Løgstør","id":"9670","postal_codes":[{"postal_name":"Løgstør","postal_code":"9670","type":"postal_code"}],"slug":"9670-logstor","key":"logstor"},{"type":"postal_district","name":"Fjerritslev","id":"9690","postal_codes":[{"postal_name":"Fjerritslev","postal_code":"9690","type":"postal_code"}],"slug":"9690-fjerritslev","key":"fjerritslev"},{"type":"postal_district","name":"Frederikshavn","id":"9900","postal_codes":[{"postal_name":"Frederikshavn","postal_code":"9900","type":"postal_code"}],"slug":"9900-frederikshavn","key":"frederikshavn"},{"type":"postal_district","name":"Thisted","id":"7700","postal_codes":[{"postal_name":"Thisted","postal_code":"7700","type":"postal_code"}],"slug":"7700-thisted","key":"thisted"}],"slug":"nordjylland"}},
{"id":"nordsj","key":"nordsj","value":{"rev":"1-ab1ff4f527daaf7642372d74a1dec912"},"doc":{"_id":"nordsj","_rev":"1-ab1ff4f527daaf7642372d74a1dec912","type":"area","id":"nordsj","name":"Nordsjælland","postal_districts":[{"type":"postal_district","name":"Tikøb","id":"3080","postal_codes":[{"postal_name":"Tikøb","postal_code":"3080","type":"postal_code"}],"slug":"3080-tikob","key":"tikob"},{"type":"postal_district","name":"Dronningmølle","id":"3120","postal_codes":[{"postal_name":"Dronningmølle","postal_code":"3120","type":"postal_code"}],"slug":"3120-dronningmolle","key":"dronningmolle"},{"type":"postal_district","name":"Vejby","id":"3210","postal_codes":[{"postal_name":"Vejby","postal_code":"3210","type":"postal_code"}],"slug":"3210-vejby","key":"vejby"},{"type":"postal_district","name":"Tisvildeleje","id":"3220","postal_codes":[{"postal_name":"Tisvildeleje","postal_code":"3220","type":"postal_code"}],"slug":"3220-tisvildeleje","key":"tisvildeleje"},{"type":"postal_district","name":"Liseleje","id":"3360","postal_codes":[{"postal_name":"Liseleje","postal_code":"3360","type":"postal_code"}],"slug":"3360-liseleje","key":"liseleje"},{"type":"postal_district","name":"Melby","id":"3370","postal_codes":[{"postal_name":"Melby","postal_code":"3370","type":"postal_code"}],"slug":"3370-melby","key":"melby"},{"type":"postal_district","name":"Ålsgårde","id":"3140","postal_codes":[{"postal_name":"Ålsgårde","postal_code":"3140","type":"postal_code"}],"slug":"3140-aalsgaarde","key":"aalsgaarde"},{"type":"postal_district","name":"Skodsborg","id":"2942","postal_codes":[{"postal_name":"Skodsborg","postal_code":"2942","type":"postal_code"}],"slug":"2942-skodsborg","key":"skodsborg"},{"type":"postal_district","name":"Hundested","id":"3390","postal_codes":[{"postal_name":"Hundested","postal_code":"3390","type":"postal_code"}],"slug":"3390-hundested","key":"hundested"},{"type":"postal_district","name":"Jægerspris","id":"3630","postal_codes":[{"postal_name":"Jægerspris","postal_code":"3630","type":"postal_code"}],"slug":"3630-jaegerspris","key":"jaegerspris"},{"type":"postal_district","name":"Snekkersten","id":"3070","postal_codes":[{"postal_name":"Snekkersten","postal_code":"3070","type":"postal_code"}],"slug":"3070-snekkersten","key":"snekkersten"},{"type":"postal_district","name":"Ølsted","id":"3310","postal_codes":[{"postal_name":"Ølsted","postal_code":"3310","type":"postal_code"}],"slug":"3310-olsted","key":"olsted"},{"type":"postal_district","name":"Hellebæk","id":"3150","postal_codes":[{"postal_name":"Hellebæk","postal_code":"3150","type":"postal_code"}],"slug":"3150-hellebaek","key":"hellebaek"},{"type":"postal_district","name":"Hornbæk","id":"3100","postal_codes":[{"postal_name":"Hornbæk","postal_code":"3100","type":"postal_code"}],"slug":"3100-hornbaek","key":"hornbaek"},{"type":"postal_district","name":"Birkerød","id":"3460","postal_codes":[{"postal_name":"Birkerød","postal_code":"3460","type":"postal_code"}],"slug":"3460-birkerod","key":"birkerod"},{"type":"postal_district","name":"Klampenborg","id":"2930","postal_codes":[{"postal_name":"Klampenborg","postal_code":"2930","type":"postal_code"}],"slug":"2930-klampenborg","key":"klampenborg"},{"type":"postal_district","name":"Gørløse","id":"3330","postal_codes":[{"postal_name":"Gørløse","postal_code":"3330","type":"postal_code"}],"slug":"3330-gorlose","key":"gorlose"},{"type":"postal_district","name":"Helsingør","id":"3000","postal_codes":[{"postal_name":"Helsingør","postal_code":"3000","type":"postal_code"}],"slug":"3000-helsingor","key":"helsingor"},{"type":"postal_district","name":"Kvistgård","id":"3490","postal_codes":[{"postal_name":"Kvistgård","postal_code":"3490","type":"postal_code"}],"slug":"3490-kvistgaard","key":"kvistgaard"},{"type":"postal_district","name":"Rungsted Kyst","id":"2960","postal_codes":[{"postal_name":"Rungsted Kyst","postal_code":"2960","type":"postal_code"}],"slug":"2960-rungsted-kyst","key":"rungsted-kyst"},{"type":"postal_district","name":"Smørum","id":"2765","postal_codes":[{"postal_name":"Smørum","postal_code":"2765","type":"postal_code"}],"slug":"2765-smorum","key":"smorum"},{"type":"postal_district","name":"Kongens Lyngby","id":"2800","postal_codes":[{"postal_name":"Kgs. Lyngby","postal_code":"2800","type":"postal_code"}],"slug":"2800-kongens-lyngby","key":"kongens-lyngby"},{"type":"postal_district","name":"Virum","id":"2830","postal_codes":[{"postal_name":"Virum","postal_code":"2830","type":"postal_code"}],"slug":"2830-virum","key":"virum"},{"type":"postal_district","name":"Helsinge","id":"3200","postal_codes":[{"postal_name":"Helsinge","postal_code":"3200","type":"postal_code"}],"slug":"3200-helsinge","key":"helsinge"},{"type":"postal_district","name":"Espergærde","id":"3060","postal_codes":[{"postal_name":"Espergærde","postal_code":"3060","type":"postal_code"}],"slug":"3060-espergaerde","key":"espergaerde"},{"type":"postal_district","name":"Stenløse","id":"3660","postal_codes":[{"postal_name":"Stenløse","postal_code":"3660","type":"postal_code"}],"slug":"3660-stenlose","key":"stenlose"},{"type":"postal_district","name":"Slangerup","id":"3550","postal_codes":[{"postal_name":"Slangerup","postal_code":"3550","type":"postal_code"}],"slug":"3550-slangerup","key":"slangerup"},{"type":"postal_district","name":"Skævinge","id":"3320","postal_codes":[{"postal_name":"Skævinge","postal_code":"3320","type":"postal_code"}],"slug":"3320-skaevinge","key":"skaevinge"},{"type":"postal_district","name":"Gilleleje","id":"3250","postal_codes":[{"postal_name":"Gilleleje","postal_code":"3250","type":"postal_code"}],"slug":"3250-gilleleje","key":"gilleleje"},{"type":"postal_district","name":"Græsted","id":"3230","postal_codes":[{"postal_name":"Græsted","postal_code":"3230","type":"postal_code"}],"slug":"3230-graested","key":"graested"},{"type":"postal_district","name":"Lynge","id":"3540","postal_codes":[{"postal_name":"Lynge","postal_code":"3540","type":"postal_code"}],"slug":"3540-lynge","key":"lynge"},{"type":"postal_district","name":"Jyllinge","id":"4040","postal_codes":[{"postal_name":"Jyllinge","postal_code":"4040","type":"postal_code"}],"slug":"4040-jyllinge","key":"jyllinge"},{"type":"postal_district","name":"Allerød","id":"3450","postal_codes":[{"postal_name":"Allerød","postal_code":"3450","type":"postal_code"}],"slug":"3450-allerod","key":"allerod"},{"type":"postal_district","name":"Nivå","id":"2990","postal_codes":[{"postal_name":"Nivå","postal_code":"2990","type":"postal_code"}],"slug":"2990-nivaa","key":"nivaa"},{"type":"postal_district","name":"Humlebæk","id":"3050","postal_codes":[{"postal_name":"Humlebæk","postal_code":"3050","type":"postal_code"}],"slug":"3050-humlebaek","key":"humlebaek"},{"type":"postal_district","name":"Farum","id":"3520","postal_codes":[{"postal_name":"Farum","postal_code":"3520","type":"postal_code"}],"slug":"3520-farum","key":"farum"},{"type":"postal_district","name":"Fredensborg","id":"3480","postal_codes":[{"postal_name":"Fredensborg","postal_code":"3480","type":"postal_code"}],"slug":"3480-fredensborg","key":"fredensborg"},{"type":"postal_district","name":"Nærum","id":"2850","postal_codes":[{"postal_name":"Nærum","postal_code":"2850","type":"postal_code"}],"slug":"2850-naerum","key":"naerum"},{"type":"postal_district","name":"Holte","id":"2840","postal_codes":[{"postal_name":"Holte","postal_code":"2840","type":"postal_code"}],"slug":"2840-holte","key":"holte"},{"type":"postal_district","name":"Veksø Sjælland","id":"3670","postal_codes":[{"postal_name":"Veksø Sjælland","postal_code":"3670","type":"postal_code"}],"slug":"3670-vekso-sjaelland","key":"vekso-sjaelland"},{"type":"postal_district","name":"Ølstykke","id":"3650","postal_codes":[{"postal_name":"Ølstykke","postal_code":"3650","type":"postal_code"}],"slug":"3650-olstykke","key":"olstykke"},{"type":"postal_district","name":"Frederiksværk","id":"3300","postal_codes":[{"postal_name":"Frederiksværk","postal_code":"3300","type":"postal_code"}],"slug":"3300-frederiksvaerk","key":"frederiksvaerk"},{"type":"postal_district","name":"Hillerød","id":"3400","postal_codes":[{"postal_name":"Hillerød","postal_code":"3400","type":"postal_code"}],"slug":"3400-hillerod","key":"hillerod"},{"type":"postal_district","name":"Kokkedal","id":"2980","postal_codes":[{"postal_name":"Kokkedal","postal_code":"2980","type":"postal_code"}],"slug":"2980-kokkedal","key":"kokkedal"},{"type":"postal_district","name":"Frederikssund","id":"3600","postal_codes":[{"postal_name":"Frederikssund","postal_code":"3600","type":"postal_code"}],"slug":"3600-frederikssund","key":"frederikssund"},{"type":"postal_district","name":"Værløse","id":"3500","postal_codes":[{"postal_name":"Værløse","postal_code":"3500","type":"postal_code"}],"slug":"3500-vaerlose","key":"vaerlose"},{"type":"postal_district","name":"Hørsholm","id":"2970","postal_codes":[{"postal_name":"Hørsholm","postal_code":"2970","type":"postal_code"}],"slug":"2970-horsholm","key":"horsholm"},{"type":"postal_district","name":"Måløv","id":"2760","postal_codes":[{"postal_name":"Måløv","postal_code":"2760","type":"postal_code"}],"slug":"2760-maalov","key":"maalov"},{"type":"postal_district","name":"Vedbæk","id":"2950","postal_codes":[{"postal_name":"Vedbæk","postal_code":"2950","type":"postal_code"}],"slug":"2950-vedbaek","key":"vedbaek"}],"slug":"nordsjaelland"}},
{"id":"ostjl","key":"ostjl","value":{"rev":"1-691a6028b4bd660c7201a47d0095548c"},"doc":{"_id":"ostjl","_rev":"1-691a6028b4bd660c7201a47d0095548c","type":"area","id":"ostjl","name":"Østjylland","postal_districts":[{"type":"postal_district","name":"Vonge","id":"7173","postal_codes":[{"postal_name":"Vonge","postal_code":"7173","type":"postal_code"}],"slug":"7173-vonge","key":"vonge"},{"type":"postal_district","name":"Hampen","id":"7362","postal_codes":[{"postal_name":"Hampen","postal_code":"7362","type":"postal_code"}],"slug":"7362-hampen","key":"hampen"},{"type":"postal_district","name":"Engesvang","id":"7442","postal_codes":[{"postal_name":"Engesvang","postal_code":"7442","type":"postal_code"}],"slug":"7442-engesvang","key":"engesvang"},{"type":"postal_district","name":"Beder","id":"8330","postal_codes":[{"postal_name":"Beder","postal_code":"8330","type":"postal_code"}],"slug":"8330-beder","key":"beder"},{"type":"postal_district","name":"Hundslund","id":"8350","postal_codes":[{"postal_name":"Hundslund","postal_code":"8350","type":"postal_code"}],"slug":"8350-hundslund","key":"hundslund"},{"type":"postal_district","name":"Knebel","id":"8420","postal_codes":[{"postal_name":"Knebel","postal_code":"8420","type":"postal_code"}],"slug":"8420-knebel","key":"knebel"},{"type":"postal_district","name":"Balle","id":"8444","postal_codes":[{"postal_name":"Balle","postal_code":"8444","type":"postal_code"}],"slug":"8444-balle","key":"balle"},{"type":"postal_district","name":"Sabro","id":"8471","postal_codes":[{"postal_name":"Sabro","postal_code":"8471","type":"postal_code"}],"slug":"8471-sabro","key":"sabro"},{"type":"postal_district","name":"Sporup","id":"8472","postal_codes":[{"postal_name":"Sporup","postal_code":"8472","type":"postal_code"}],"slug":"8472-sporup","key":"sporup"},{"type":"postal_district","name":"Mørke","id":"8544","postal_codes":[{"postal_name":"Mørke","postal_code":"8544","type":"postal_code"}],"slug":"8544-morke","key":"morke"},{"type":"postal_district","name":"Kolind","id":"8560","postal_codes":[{"postal_name":"Kolind","postal_code":"8560","type":"postal_code"}],"slug":"8560-kolind","key":"kolind"},{"type":"postal_district","name":"Trustrup","id":"8570","postal_codes":[{"postal_name":"Trustrup","postal_code":"8570","type":"postal_code"}],"slug":"8570-trustrup","key":"trustrup"},{"type":"postal_district","name":"Anholt","id":"8592","postal_codes":[{"postal_name":"Anholt","postal_code":"8592","type":"postal_code"}],"slug":"8592-anholt","key":"anholt"},{"type":"postal_district","name":"Lemming","id":"8632","postal_codes":[{"postal_name":"Lemming","postal_code":"8632","type":"postal_code"}],"slug":"8632-lemming","key":"lemming"},{"type":"postal_district","name":"Ans By","id":"8643","postal_codes":[{"postal_name":"Ans By","postal_code":"8643","type":"postal_code"}],"slug":"8643-ans-by","key":"ans-by"},{"type":"postal_district","name":"Bryrup","id":"8654","postal_codes":[{"postal_name":"Bryrup","postal_code":"8654","type":"postal_code"}],"slug":"8654-bryrup","key":"bryrup"},{"type":"postal_district","name":"Låsby","id":"8670","postal_codes":[{"postal_name":"Låsby","postal_code":"8670","type":"postal_code"}],"slug":"8670-laasby","key":"laasby"},{"type":"postal_district","name":"Hovedgård","id":"8732","postal_codes":[{"postal_name":"Hovedgård","postal_code":"8732","type":"postal_code"}],"slug":"8732-hovedgaard","key":"hovedgaard"},{"type":"postal_district","name":"Østbirk","id":"8752","postal_codes":[{"postal_name":"Østbirk","postal_code":"8752","type":"postal_code"}],"slug":"8752-ostbirk","key":"ostbirk"},{"type":"postal_district","name":"Flemming","id":"8762","postal_codes":[{"postal_name":"Flemming","postal_code":"8762","type":"postal_code"}],"slug":"8762-flemming","key":"flemming"},{"type":"postal_district","name":"Rask Mølle","id":"8763","postal_codes":[{"postal_name":"Rask Mølle","postal_code":"8763","type":"postal_code"}],"slug":"8763-rask-molle","key":"rask-molle"},{"type":"postal_district","name":"Klovborg","id":"8765","postal_codes":[{"postal_name":"Klovborg","postal_code":"8765","type":"postal_code"}],"slug":"8765-klovborg","key":"klovborg"},{"type":"postal_district","name":"Tjele","id":"8830","postal_codes":[{"postal_name":"Tjele","postal_code":"8830","type":"postal_code"}],"slug":"8830-tjele","key":"tjele"},{"type":"postal_district","name":"Løgstrup","id":"8831","postal_codes":[{"postal_name":"Løgstrup","postal_code":"8831","type":"postal_code"}],"slug":"8831-logstrup","key":"logstrup"},{"type":"postal_district","name":"Skals","id":"8832","postal_codes":[{"postal_name":"Skals","postal_code":"8832","type":"postal_code"}],"slug":"8832-skals","key":"skals"},{"type":"postal_district","name":"Ulstrup","id":"8860","postal_codes":[{"postal_name":"Ulstrup","postal_code":"8860","type":"postal_code"}],"slug":"8860-ulstrup","key":"ulstrup"},{"type":"postal_district","name":"Nørre Snede","id":"8766","postal_codes":[{"postal_name":"Nørre Snede","postal_code":"8766","type":"postal_code"}],"slug":"8766-norre-snede","key":"norre-snede"},{"type":"postal_district","name":"Uldum","id":"7171","postal_codes":[{"postal_name":"Uldum","postal_code":"7171","type":"postal_code"}],"slug":"7171-uldum","key":"uldum"},{"type":"postal_district","name":"Hørning","id":"8362","postal_codes":[{"postal_name":"Hørning","postal_code":"8362","type":"postal_code"}],"slug":"8362-horning","key":"horning"},{"type":"postal_district","name":"Rødkærsbro","id":"8840","postal_codes":[{"postal_name":"Rødkærsbro","postal_code":"8840","type":"postal_code"}],"slug":"8840-rodkaersbro","key":"rodkaersbro"},{"type":"postal_district","name":"Glesborg","id":"8585","postal_codes":[{"postal_name":"Glesborg","postal_code":"8585","type":"postal_code"}],"slug":"8585-glesborg","key":"glesborg"},{"type":"postal_district","name":"Trige","id":"8380","postal_codes":[{"postal_name":"Trige","postal_code":"8380","type":"postal_code"}],"slug":"8380-trige","key":"trige"},{"type":"postal_district","name":"Galten","id":"8464","postal_codes":[{"postal_name":"Galten","postal_code":"8464","type":"postal_code"}],"slug":"8464-galten","key":"galten"},{"type":"postal_district","name":"Kjellerup","id":"8620","postal_codes":[{"postal_name":"Kjellerup","postal_code":"8620","type":"postal_code"}],"slug":"8620-kjellerup","key":"kjellerup"},{"type":"postal_district","name":"Sorring","id":"8641","postal_codes":[{"postal_name":"Sorring","postal_code":"8641","type":"postal_code"}],"slug":"8641-sorring","key":"sorring"},{"type":"postal_district","name":"Thorsø","id":"8881","postal_codes":[{"postal_name":"Thorsø","postal_code":"8881","type":"postal_code"}],"slug":"8881-thorso","key":"thorso"},{"type":"postal_district","name":"Fårvang","id":"8882","postal_codes":[{"postal_name":"Fårvang","postal_code":"8882","type":"postal_code"}],"slug":"8882-faarvang","key":"faarvang"},{"type":"postal_district","name":"Ørsted","id":"8950","postal_codes":[{"postal_name":"Ørsted","postal_code":"8950","type":"postal_code"}],"slug":"8950-orsted","key":"orsted"},{"type":"postal_district","name":"Allingåbro","id":"8961","postal_codes":[{"postal_name":"Allingåbro","postal_code":"8961","type":"postal_code"}],"slug":"8961-allingaabro","key":"allingaabro"},{"type":"postal_district","name":"Spentrup","id":"8981","postal_codes":[{"postal_name":"Spentrup","postal_code":"8981","type":"postal_code"}],"slug":"8981-spentrup","key":"spentrup"},{"type":"postal_district","name":"Fårup","id":"8990","postal_codes":[{"postal_name":"Fårup","postal_code":"8990","type":"postal_code"}],"slug":"8990-faarup","key":"faarup"},{"type":"postal_district","name":"Gjerlev J","id":"8983","postal_codes":[{"postal_name":"Gjerlev J","postal_code":"8983","type":"postal_code"}],"slug":"8983-gjerlev-j","key":"gjerlev-j"},{"type":"postal_district","name":"Mariager","id":"9550","postal_codes":[{"postal_name":"Mariager","postal_code":"9550","type":"postal_code"}],"slug":"9550-mariager","key":"mariager"},{"type":"postal_district","name":"Auning","id":"8963","postal_codes":[{"postal_name":"Auning","postal_code":"8963","type":"postal_code"}],"slug":"8963-auning","key":"auning"},{"type":"postal_district","name":"Them","id":"8653","postal_codes":[{"postal_name":"Them","postal_code":"8653","type":"postal_code"}],"slug":"8653-them","key":"them"},{"type":"postal_district","name":"Mårslet","id":"8320","postal_codes":[{"postal_name":"Mårslet","postal_code":"8320","type":"postal_code"}],"slug":"8320-maarslet","key":"maarslet"},{"type":"postal_district","name":"Langå","id":"8870","postal_codes":[{"postal_name":"Langå","postal_code":"8870","type":"postal_code"}],"slug":"8870-langaa","key":"langaa"},{"type":"postal_district","name":"Randers SØ","id":"8960","postal_codes":[{"postal_name":"Randers SØ","postal_code":"8960","type":"postal_code"}],"slug":"8960-randers-so","key":"randers-so"},{"type":"postal_district","name":"Havndal","id":"8970","postal_codes":[{"postal_name":"Havndal","postal_code":"8970","type":"postal_code"}],"slug":"8970-havndal","key":"havndal"},{"type":"postal_district","name":"Harlev J","id":"8462","postal_codes":[{"postal_name":"Harlev J","postal_code":"8462","type":"postal_code"}],"slug":"8462-harlev-j","key":"harlev-j"},{"type":"postal_district","name":"Ørum Djurs","id":"8586","postal_codes":[{"postal_name":"Ørum Djurs","postal_code":"8586","type":"postal_code"}],"slug":"8586-orum-djurs","key":"orum-djurs"},{"type":"postal_district","name":"Ry","id":"8680","postal_codes":[{"postal_name":"Ry","postal_code":"8680","type":"postal_code"}],"slug":"8680-ry","key":"ry"},{"type":"postal_district","name":"Malling","id":"8340","postal_codes":[{"postal_name":"Malling","postal_code":"8340","type":"postal_code"}],"slug":"8340-malling","key":"malling"},{"type":"postal_district","name":"Nimtofte","id":"8581","postal_codes":[{"postal_name":"Nimtofte","postal_code":"8581","type":"postal_code"}],"slug":"8581-nimtofte","key":"nimtofte"},{"type":"postal_district","name":"Tilst","id":"8381","postal_codes":[{"postal_name":"Tilst","postal_code":"8381","type":"postal_code"}],"slug":"8381-tilst","key":"tilst"},{"type":"postal_district","name":"Hornslet","id":"8543","postal_codes":[{"postal_name":"Hornslet","postal_code":"8543","type":"postal_code"}],"slug":"8543-hornslet","key":"hornslet"},{"type":"postal_district","name":"Solbjerg","id":"8355","postal_codes":[{"postal_name":"Solbjerg","postal_code":"8355","type":"postal_code"}],"slug":"8355-solbjerg","key":"solbjerg"},{"type":"postal_district","name":"Gjern","id":"8883","postal_codes":[{"postal_name":"Gjern","postal_code":"8883","type":"postal_code"}],"slug":"8883-gjern","key":"gjern"},{"type":"postal_district","name":"Skødstrup","id":"8541","postal_codes":[{"postal_name":"Skødstrup","postal_code":"8541","type":"postal_code"}],"slug":"8541-skodstrup","key":"skodstrup"},{"type":"postal_district","name":"Rønde","id":"8410","postal_codes":[{"postal_name":"Rønde","postal_code":"8410","type":"postal_code"}],"slug":"8410-ronde","key":"ronde"},{"type":"postal_district","name":"Randers NV","id":"8920","postal_codes":[{"postal_name":"Randers NV","postal_code":"8920","type":"postal_code"}],"slug":"8920-randers-nv","key":"randers-nv"},{"type":"postal_district","name":"Randers SV","id":"8940","postal_codes":[{"postal_name":"Randers SV","postal_code":"8940","type":"postal_code"}],"slug":"8940-randers-sv","key":"randers-sv"},{"type":"postal_district","name":"Hammel","id":"8450","postal_codes":[{"postal_name":"Hammel","postal_code":"8450","type":"postal_code"}],"slug":"8450-hammel","key":"hammel"},{"type":"postal_district","name":"Randers C","id":"8900","postal_codes":[{"postal_name":"Randers C","postal_code":"8900","type":"postal_code"}],"slug":"8900-randers-c","key":"randers-c"},{"type":"postal_district","name":"Brabrand","id":"8220","postal_codes":[{"postal_name":"Brabrand","postal_code":"8220","type":"postal_code"}],"slug":"8220-brabrand","key":"brabrand"},{"type":"postal_district","name":"Randers NØ","id":"8930","postal_codes":[{"postal_name":"Randers NØ","postal_code":"8930","type":"postal_code"}],"slug":"8930-randers-no","key":"randers-no"},{"type":"postal_district","name":"Ryomgård","id":"8550","postal_codes":[{"postal_name":"Ryomgård","postal_code":"8550","type":"postal_code"}],"slug":"8550-ryomgaard","key":"ryomgaard"},{"type":"postal_district","name":"Århus V","id":"8210","postal_codes":[{"postal_name":"Aarhus V","postal_code":"8210","type":"postal_code"}],"slug":"8210-aarhus-v","key":"aarhus-v"},{"type":"postal_district","name":"Hinnerup","id":"8382","postal_codes":[{"postal_name":"Hinnerup","postal_code":"8382","type":"postal_code"}],"slug":"8382-hinnerup","key":"hinnerup"},{"type":"postal_district","name":"Odder","id":"8300","postal_codes":[{"postal_name":"Odder","postal_code":"8300","type":"postal_code"}],"slug":"8300-odder","key":"odder"},{"type":"postal_district","name":"Skanderborg","id":"8660","postal_codes":[{"postal_name":"Skanderborg","postal_code":"8660","type":"postal_code"}],"slug":"8660-skanderborg","key":"skanderborg"},{"type":"postal_district","name":"Tranbjerg J","id":"8310","postal_codes":[{"postal_name":"Tranbjerg J","postal_code":"8310","type":"postal_code"}],"slug":"8310-tranbjerg-j","key":"tranbjerg-j"},{"type":"postal_district","name":"Hasselager","id":"8361","postal_codes":[{"postal_name":"Hasselager","postal_code":"8361","type":"postal_code"}],"slug":"8361-hasselager","key":"hasselager"},{"type":"postal_district","name":"Brædstrup","id":"8740","postal_codes":[{"postal_name":"Brædstrup","postal_code":"8740","type":"postal_code"}],"slug":"8740-braedstrup","key":"braedstrup"},{"type":"postal_district","name":"Åbyhøj","id":"8230","postal_codes":[{"postal_name":"Åbyhøj","postal_code":"8230","type":"postal_code"}],"slug":"8230-aabyhoj","key":"aabyhoj"},{"type":"postal_district","name":"Karup J","id":"7470","postal_codes":[{"postal_name":"Karup J","postal_code":"7470","type":"postal_code"}],"slug":"7470-karup-j","key":"karup-j"},{"type":"postal_district","name":"Samsø","id":"8305","postal_codes":[{"postal_name":"Samsø","postal_code":"8305","type":"postal_code"}],"slug":"8305-samso","key":"samso"},{"type":"postal_district","name":"Horsens","id":"8700","postal_codes":[{"postal_name":"Horsens","postal_code":"8700","type":"postal_code"}],"slug":"8700-horsens","key":"horsens"},{"type":"postal_district","name":"Højbjerg","id":"8270","postal_codes":[{"postal_name":"Højbjerg","postal_code":"8270","type":"postal_code"}],"slug":"8270-hojbjerg","key":"hojbjerg"},{"type":"postal_district","name":"Hadsten","id":"8370","postal_codes":[{"postal_name":"Hadsten","postal_code":"8370","type":"postal_code"}],"slug":"8370-hadsten","key":"hadsten"},{"type":"postal_district","name":"Gedved","id":"8751","postal_codes":[{"postal_name":"Gedved","postal_code":"8751","type":"postal_code"}],"slug":"8751-gedved","key":"gedved"},{"type":"postal_district","name":"Bjerringbro","id":"8850","postal_codes":[{"postal_name":"Bjerringbro","postal_code":"8850","type":"postal_code"}],"slug":"8850-bjerringbro","key":"bjerringbro"},{"type":"postal_district","name":"Viby J","id":"8260","postal_codes":[{"postal_name":"Viby J","postal_code":"8260","type":"postal_code"}],"slug":"8260-viby-j","key":"viby-j"},{"type":"postal_district","name":"Viborg","id":"8800","postal_codes":[{"postal_name":"Viborg","postal_code":"8800","type":"postal_code"}],"slug":"8800-viborg","key":"viborg"},{"type":"postal_district","name":"Århus N","id":"8200","postal_codes":[{"postal_name":"Aarhus N","postal_code":"8200","type":"postal_code"}],"slug":"8200-aarhus-n","key":"aarhus-n"},{"type":"postal_district","name":"Silkeborg","id":"8600","postal_codes":[{"postal_name":"Silkeborg","postal_code":"8600","type":"postal_code"}],"slug":"8600-silkeborg","key":"silkeborg"},{"type":"postal_district","name":"Ebeltoft","id":"8400","postal_codes":[{"postal_name":"Ebeltoft","postal_code":"8400","type":"postal_code"}],"slug":"8400-ebeltoft","key":"ebeltoft"},{"type":"postal_district","name":"Egå","id":"8250","postal_codes":[{"postal_name":"Egå","postal_code":"8250","type":"postal_code"}],"slug":"8250-egaa","key":"egaa"},{"type":"postal_district","name":"Risskov","id":"8240","postal_codes":[{"postal_name":"Risskov","postal_code":"8240","type":"postal_code"}],"slug":"8240-risskov","key":"risskov"},{"type":"postal_district","name":"Hjortshøj","id":"8530","postal_codes":[{"postal_name":"Hjortshøj","postal_code":"8530","type":"postal_code"}],"slug":"8530-hjortshoj","key":"hjortshoj"},{"type":"postal_district","name":"Grenaa","id":"8500","postal_codes":[{"postal_name":"Grenaa","postal_code":"8500","type":"postal_code"}],"slug":"8500-grenaa","key":"grenaa"},{"type":"postal_district","name":"Århus C","id":"8000","postal_codes":[{"postal_name":"Aarhus C","postal_code":"8000","type":"postal_code"}],"slug":"8000-aarhus-c","key":"aarhus-c"},{"type":"postal_district","name":"Lystrup","id":"8520","postal_codes":[{"postal_name":"Lystrup","postal_code":"8520","type":"postal_code"}],"slug":"8520-lystrup","key":"lystrup"}],"slug":"ostjylland"}},
{"id":"sydjl","key":"sydjl","value":{"rev":"1-746c7deb5fa75e0070398ccecac0b0bc"},"doc":{"_id":"sydjl","_rev":"1-746c7deb5fa75e0070398ccecac0b0bc","type":"area","id":"sydjl","name":"Sydjylland","postal_districts":[{"type":"postal_district","name":"Viuf","id":"6052","postal_codes":[{"postal_name":"Viuf","postal_code":"6052","type":"postal_code"}],"slug":"6052-viuf","key":"viuf"},{"type":"postal_district","name":"Agerskov","id":"6534","postal_codes":[{"postal_name":"Agerskov","postal_code":"6534","type":"postal_code"}],"slug":"6534-agerskov","key":"agerskov"},{"type":"postal_district","name":"Christiansfeld","id":"6070","postal_codes":[{"postal_name":"Christiansfeld","postal_code":"6070","type":"postal_code"}],"slug":"6070-christiansfeld","key":"christiansfeld"},{"type":"postal_district","name":"Jordrup","id":"6064","postal_codes":[{"postal_name":"Jordrup","postal_code":"6064","type":"postal_code"}],"slug":"6064-jordrup","key":"jordrup"},{"type":"postal_district","name":"Bjert","id":"6091","postal_codes":[{"postal_name":"Bjert","postal_code":"6091","type":"postal_code"}],"slug":"6091-bjert","key":"bjert"},{"type":"postal_district","name":"Haderslev","id":"6100","postal_codes":[{"postal_name":"Haderslev","postal_code":"6100","type":"postal_code"}],"slug":"6100-haderslev","key":"haderslev"},{"type":"postal_district","name":"Sønder Stenderup","id":"6092","postal_codes":[{"postal_name":"Sønder Stenderup","postal_code":"6092","type":"postal_code"}],"slug":"6092-sonder-stenderup","key":"sonder-stenderup"},{"type":"postal_district","name":"Sjølund","id":"6093","postal_codes":[{"postal_name":"Sjølund","postal_code":"6093","type":"postal_code"}],"slug":"6093-sjolund","key":"sjolund"},{"type":"postal_district","name":"Hejls","id":"6094","postal_codes":[{"postal_name":"Hejls","postal_code":"6094","type":"postal_code"}],"slug":"6094-hejls","key":"hejls"},{"type":"postal_district","name":"Bredebro","id":"6261","postal_codes":[{"postal_name":"Bredebro","postal_code":"6261","type":"postal_code"}],"slug":"6261-bredebro","key":"bredebro"},{"type":"postal_district","name":"Højer","id":"6280","postal_codes":[{"postal_name":"Højer","postal_code":"6280","type":"postal_code"}],"slug":"6280-hojer","key":"hojer"},{"type":"postal_district","name":"Broager","id":"6310","postal_codes":[{"postal_name":"Broager","postal_code":"6310","type":"postal_code"}],"slug":"6310-broager","key":"broager"},{"type":"postal_district","name":"Egernsund","id":"6320","postal_codes":[{"postal_name":"Egernsund","postal_code":"6320","type":"postal_code"}],"slug":"6320-egernsund","key":"egernsund"},{"type":"postal_district","name":"Bylderup-Bov","id":"6372","postal_codes":[{"postal_name":"Bylderup-Bov","postal_code":"6372","type":"postal_code"}],"slug":"6372-bylderup-bov","key":"bylderup-bov"},{"type":"postal_district","name":"Bolderslev","id":"6392","postal_codes":[{"postal_name":"Bolderslev","postal_code":"6392","type":"postal_code"}],"slug":"6392-bolderslev","key":"bolderslev"},{"type":"postal_district","name":"Augustenborg","id":"6440","postal_codes":[{"postal_name":"Augustenborg","postal_code":"6440","type":"postal_code"}],"slug":"6440-augustenborg","key":"augustenborg"},{"type":"postal_district","name":"Gram","id":"6510","postal_codes":[{"postal_name":"Gram","postal_code":"6510","type":"postal_code"}],"slug":"6510-gram","key":"gram"},{"type":"postal_district","name":"Branderup J","id":"6535","postal_codes":[{"postal_name":"Branderup J","postal_code":"6535","type":"postal_code"}],"slug":"6535-branderup-j","key":"branderup-j"},{"type":"postal_district","name":"Bevtoft","id":"6541","postal_codes":[{"postal_name":"Bevtoft","postal_code":"6541","type":"postal_code"}],"slug":"6541-bevtoft","key":"bevtoft"},{"type":"postal_district","name":"Sommersted","id":"6560","postal_codes":[{"postal_name":"Sommersted","postal_code":"6560","type":"postal_code"}],"slug":"6560-sommersted","key":"sommersted"},{"type":"postal_district","name":"Gesten","id":"6621","postal_codes":[{"postal_name":"Gesten","postal_code":"6621","type":"postal_code"}],"slug":"6621-gesten","key":"gesten"},{"type":"postal_district","name":"Vorbasse","id":"6623","postal_codes":[{"postal_name":"Vorbasse","postal_code":"6623","type":"postal_code"}],"slug":"6623-vorbasse","key":"vorbasse"},{"type":"postal_district","name":"Lintrup","id":"6660","postal_codes":[{"postal_name":"Lintrup","postal_code":"6660","type":"postal_code"}],"slug":"6660-lintrup","key":"lintrup"},{"type":"postal_district","name":"Hovborg","id":"6682","postal_codes":[{"postal_name":"Hovborg","postal_code":"6682","type":"postal_code"}],"slug":"6682-hovborg","key":"hovborg"},{"type":"postal_district","name":"Føvling","id":"6683","postal_codes":[{"postal_name":"Føvling","postal_code":"6683","type":"postal_code"}],"slug":"6683-fovling","key":"fovling"},{"type":"postal_district","name":"Tjæreborg","id":"6731","postal_codes":[{"postal_name":"Tjæreborg","postal_code":"6731","type":"postal_code"}],"slug":"6731-tjaereborg","key":"tjaereborg"},{"type":"postal_district","name":"Glejbjerg","id":"6752","postal_codes":[{"postal_name":"Glejbjerg","postal_code":"6752","type":"postal_code"}],"slug":"6752-glejbjerg","key":"glejbjerg"},{"type":"postal_district","name":"Gredstedbro","id":"6771","postal_codes":[{"postal_name":"Gredstedbro","postal_code":"6771","type":"postal_code"}],"slug":"6771-gredstedbro","key":"gredstedbro"},{"type":"postal_district","name":"Ansager","id":"6823","postal_codes":[{"postal_name":"Ansager","postal_code":"6823","type":"postal_code"}],"slug":"6823-ansager","key":"ansager"},{"type":"postal_district","name":"Nørre Nebel","id":"6830","postal_codes":[{"postal_name":"Nørre Nebel","postal_code":"6830","type":"postal_code"}],"slug":"6830-norre-nebel","key":"norre-nebel"},{"type":"postal_district","name":"Oksbøl","id":"6840","postal_codes":[{"postal_name":"Oksbøl","postal_code":"6840","type":"postal_code"}],"slug":"6840-oksbol","key":"oksbol"},{"type":"postal_district","name":"Janderup Vestj","id":"6851","postal_codes":[{"postal_name":"Janderup Vestj","postal_code":"6851","type":"postal_code"}],"slug":"6851-janderup-vestj","key":"janderup-vestj"},{"type":"postal_district","name":"Billum","id":"6852","postal_codes":[{"postal_name":"Billum","postal_code":"6852","type":"postal_code"}],"slug":"6852-billum","key":"billum"},{"type":"postal_district","name":"Vejers Strand","id":"6853","postal_codes":[{"postal_name":"Vejers Strand","postal_code":"6853","type":"postal_code"}],"slug":"6853-vejers-strand","key":"vejers-strand"},{"type":"postal_district","name":"Henne","id":"6854","postal_codes":[{"postal_name":"Henne","postal_code":"6854","type":"postal_code"}],"slug":"6854-henne","key":"henne"},{"type":"postal_district","name":"Ovtrup","id":"6855","postal_codes":[{"postal_name":"Outrup","postal_code":"6855","type":"postal_code"}],"slug":"6855-ovtrup","key":"ovtrup"},{"type":"postal_district","name":"Blåvand","id":"6857","postal_codes":[{"postal_name":"Blåvand","postal_code":"6857","type":"postal_code"}],"slug":"6857-blaavand","key":"blaavand"},{"type":"postal_district","name":"Tistrup","id":"6862","postal_codes":[{"postal_name":"Tistrup","postal_code":"6862","type":"postal_code"}],"slug":"6862-tistrup","key":"tistrup"},{"type":"postal_district","name":"Ølgod","id":"6870","postal_codes":[{"postal_name":"Ølgod","postal_code":"6870","type":"postal_code"}],"slug":"6870-olgod","key":"olgod"},{"type":"postal_district","name":"Agerbæk","id":"6753","postal_codes":[{"postal_name":"Agerbæk","postal_code":"6753","type":"postal_code"}],"slug":"6753-agerbaek","key":"agerbaek"},{"type":"postal_district","name":"Stouby","id":"7140","postal_codes":[{"postal_name":"Stouby","postal_code":"7140","type":"postal_code"}],"slug":"7140-stouby","key":"stouby"},{"type":"postal_district","name":"Barrit","id":"7150","postal_codes":[{"postal_name":"Barrit","postal_code":"7150","type":"postal_code"}],"slug":"7150-barrit","key":"barrit"},{"type":"postal_district","name":"Vonge","id":"7173","postal_codes":[{"postal_name":"Vonge","postal_code":"7173","type":"postal_code"}],"slug":"7173-vonge","key":"vonge"},{"type":"postal_district","name":"Randbøl","id":"7183","postal_codes":[{"postal_name":"Randbøl","postal_code":"7183","type":"postal_code"}],"slug":"7183-randbol","key":"randbol"},{"type":"postal_district","name":"Vandel","id":"7184","postal_codes":[{"postal_name":"Vandel","postal_code":"7184","type":"postal_code"}],"slug":"7184-vandel","key":"vandel"},{"type":"postal_district","name":"Hejnsvig","id":"7250","postal_codes":[{"postal_name":"Hejnsvig","postal_code":"7250","type":"postal_code"}],"slug":"7250-hejnsvig","key":"hejnsvig"},{"type":"postal_district","name":"Gråsten","id":"6300","postal_codes":[{"postal_name":"Gråsten","postal_code":"6300","type":"postal_code"}],"slug":"6300-graasten","key":"graasten"},{"type":"postal_district","name":"Billund","id":"7190","postal_codes":[{"postal_name":"Billund","postal_code":"7190","type":"postal_code"}],"slug":"7190-billund","key":"billund"},{"type":"postal_district","name":"Fanø","id":"6720","postal_codes":[{"postal_name":"Fanø","postal_code":"6720","type":"postal_code"}],"slug":"6720-fano","key":"fano"},{"type":"postal_district","name":"Skærbæk","id":"6780","postal_codes":[{"postal_name":"Skærbæk","postal_code":"6780","type":"postal_code"}],"slug":"6780-skaerbaek","key":"skaerbaek"},{"type":"postal_district","name":"Bramming","id":"6740","postal_codes":[{"postal_name":"Bramming","postal_code":"6740","type":"postal_code"}],"slug":"6740-bramming","key":"bramming"},{"type":"postal_district","name":"Løgumkloster","id":"6240","postal_codes":[{"postal_name":"Løgumkloster","postal_code":"6240","type":"postal_code"}],"slug":"6240-logumkloster","key":"logumkloster"},{"type":"postal_district","name":"Lunderskov","id":"6640","postal_codes":[{"postal_name":"Lunderskov","postal_code":"6640","type":"postal_code"}],"slug":"6640-lunderskov","key":"lunderskov"},{"type":"postal_district","name":"Jelling","id":"7300","postal_codes":[{"postal_name":"Jelling","postal_code":"7300","type":"postal_code"}],"slug":"7300-jelling","key":"jelling"},{"type":"postal_district","name":"Sydals","id":"6470","postal_codes":[{"postal_name":"Sydals","postal_code":"6470","type":"postal_code"}],"slug":"6470-sydals","key":"sydals"},{"type":"postal_district","name":"Vejle Øst","id":"7120","postal_codes":[{"postal_name":"Vejle Øst","postal_code":"7120","type":"postal_code"}],"slug":"7120-vejle-ost","key":"vejle-ost"},{"type":"postal_district","name":"Kruså","id":"6340","postal_codes":[{"postal_name":"Kruså","postal_code":"6340","type":"postal_code"}],"slug":"6340-krusaa","key":"krusaa"},{"type":"postal_district","name":"Holsted","id":"6670","postal_codes":[{"postal_name":"Holsted","postal_code":"6670","type":"postal_code"}],"slug":"6670-holsted","key":"holsted"},{"type":"postal_district","name":"Esbjerg V","id":"6710","postal_codes":[{"postal_name":"Esbjerg V","postal_code":"6710","type":"postal_code"}],"slug":"6710-esbjerg-v","key":"esbjerg-v"},{"type":"postal_district","name":"Bredsten","id":"7182","postal_codes":[{"postal_name":"Bredsten","postal_code":"7182","type":"postal_code"}],"slug":"7182-bredsten","key":"bredsten"},{"type":"postal_district","name":"Gadbjerg","id":"7321","postal_codes":[{"postal_name":"Gadbjerg","postal_code":"7321","type":"postal_code"}],"slug":"7321-gadbjerg","key":"gadbjerg"},{"type":"postal_district","name":"Daugård","id":"8721","postal_codes":[{"postal_name":"Daugård","postal_code":"8721","type":"postal_code"}],"slug":"8721-daugaard","key":"daugaard"},{"type":"postal_district","name":"Flemming","id":"8762","postal_codes":[{"postal_name":"Flemming","postal_code":"8762","type":"postal_code"}],"slug":"8762-flemming","key":"flemming"},{"type":"postal_district","name":"Rask Mølle","id":"8763","postal_codes":[{"postal_name":"Rask Mølle","postal_code":"8763","type":"postal_code"}],"slug":"8763-rask-molle","key":"rask-molle"},{"type":"postal_district","name":"Stenderup","id":"8781","postal_codes":[{"postal_name":"Stenderup","postal_code":"8781","type":"postal_code"}],"slug":"8781-stenderup","key":"stenderup"},{"type":"postal_district","name":"Uldum","id":"7171","postal_codes":[{"postal_name":"Uldum","postal_code":"7171","type":"postal_code"}],"slug":"7171-uldum","key":"uldum"},{"type":"postal_district","name":"Hornsyld","id":"8783","postal_codes":[{"postal_name":"Hornsyld","postal_code":"8783","type":"postal_code"}],"slug":"8783-hornsyld","key":"hornsyld"},{"type":"postal_district","name":"Give","id":"7323","postal_codes":[{"postal_name":"Give","postal_code":"7323","type":"postal_code"}],"slug":"7323-give","key":"give"},{"type":"postal_district","name":"Løsning","id":"8723","postal_codes":[{"postal_name":"Løsning","postal_code":"8723","type":"postal_code"}],"slug":"8723-losning","key":"losning"},{"type":"postal_district","name":"Almind","id":"6051","postal_codes":[{"postal_name":"Almind","postal_code":"6051","type":"postal_code"}],"slug":"6051-almind","key":"almind"},{"type":"postal_district","name":"Nordborg","id":"6430","postal_codes":[{"postal_name":"Nordborg","postal_code":"6430","type":"postal_code"}],"slug":"6430-nordborg","key":"nordborg"},{"type":"postal_district","name":"Grindsted","id":"7200","postal_codes":[{"postal_name":"Grindsted","postal_code":"7200","type":"postal_code"}],"slug":"7200-grindsted","key":"grindsted"},{"type":"postal_district","name":"Bække","id":"6622","postal_codes":[{"postal_name":"Bække","postal_code":"6622","type":"postal_code"}],"slug":"6622-baekke","key":"baekke"},{"type":"postal_district","name":"Tønder","id":"6270","postal_codes":[{"postal_name":"Tønder","postal_code":"6270","type":"postal_code"}],"slug":"6270-tonder","key":"tonder"},{"type":"postal_district","name":"Juelsminde","id":"7130","postal_codes":[{"postal_name":"Juelsminde","postal_code":"7130","type":"postal_code"}],"slug":"7130-juelsminde","key":"juelsminde"},{"type":"postal_district","name":"Brørup","id":"6650","postal_codes":[{"postal_name":"Brørup","postal_code":"6650","type":"postal_code"}],"slug":"6650-brorup","key":"brorup"},{"type":"postal_district","name":"Rømø","id":"6792","postal_codes":[{"postal_name":"Rømø","postal_code":"6792","type":"postal_code"}],"slug":"6792-romo","key":"romo"},{"type":"postal_district","name":"Esbjerg N","id":"6715","postal_codes":[{"postal_name":"Esbjerg N","postal_code":"6715","type":"postal_code"}],"slug":"6715-esbjerg-n","key":"esbjerg-n"},{"type":"postal_district","name":"Sønderborg","id":"6400","postal_codes":[{"postal_name":"Sønderborg","postal_code":"6400","type":"postal_code"}],"slug":"6400-sonderborg","key":"sonderborg"},{"type":"postal_district","name":"Vamdrup","id":"6580","postal_codes":[{"postal_name":"Vamdrup","postal_code":"6580","type":"postal_code"}],"slug":"6580-vamdrup","key":"vamdrup"},{"type":"postal_district","name":"Årre","id":"6818","postal_codes":[{"postal_name":"Årre","postal_code":"6818","type":"postal_code"}],"slug":"6818-aarre","key":"aarre"},{"type":"postal_district","name":"Tørring","id":"7160","postal_codes":[{"postal_name":"Tørring","postal_code":"7160","type":"postal_code"}],"slug":"7160-torring","key":"torring"},{"type":"postal_district","name":"Toftlund","id":"6520","postal_codes":[{"postal_name":"Toftlund","postal_code":"6520","type":"postal_code"}],"slug":"6520-toftlund","key":"toftlund"},{"type":"postal_district","name":"Børkop","id":"7080","postal_codes":[{"postal_name":"Børkop","postal_code":"7080","type":"postal_code"}],"slug":"7080-borkop","key":"borkop"},{"type":"postal_district","name":"Padborg","id":"6330","postal_codes":[{"postal_name":"Padborg","postal_code":"6330","type":"postal_code"}],"slug":"6330-padborg","key":"padborg"},{"type":"postal_district","name":"Esbjerg Ø","id":"6705","postal_codes":[{"postal_name":"Esbjerg Ø","postal_code":"6705","type":"postal_code"}],"slug":"6705-esbjerg-o","key":"esbjerg-o"},{"type":"postal_district","name":"Gørding","id":"6690","postal_codes":[{"postal_name":"Gørding","postal_code":"6690","type":"postal_code"}],"slug":"6690-gording","key":"gording"},{"type":"postal_district","name":"Ribe","id":"6760","postal_codes":[{"postal_name":"Ribe","postal_code":"6760","type":"postal_code"}],"slug":"6760-ribe","key":"ribe"},{"type":"postal_district","name":"Vojens","id":"6500","postal_codes":[{"postal_name":"Vojens","postal_code":"6500","type":"postal_code"}],"slug":"6500-vojens","key":"vojens"},{"type":"postal_district","name":"Vejen","id":"6600","postal_codes":[{"postal_name":"Vejen","postal_code":"6600","type":"postal_code"}],"slug":"6600-vejen","key":"vejen"},{"type":"postal_district","name":"Tinglev","id":"6360","postal_codes":[{"postal_name":"Tinglev","postal_code":"6360","type":"postal_code"}],"slug":"6360-tinglev","key":"tinglev"},{"type":"postal_district","name":"Aabenraa","id":"6200","postal_codes":[{"postal_name":"Aabenraa","postal_code":"6200","type":"postal_code"}],"slug":"6200-aabenraa","key":"aabenraa"},{"type":"postal_district","name":"Rødding","id":"6630","postal_codes":[{"postal_name":"Rødding","postal_code":"6630","type":"postal_code"}],"slug":"6630-rodding","key":"rodding"},{"type":"postal_district","name":"Egtved","id":"6040","postal_codes":[{"postal_name":"Egtved","postal_code":"6040","type":"postal_code"}],"slug":"6040-egtved","key":"egtved"},{"type":"postal_district","name":"Varde","id":"6800","postal_codes":[{"postal_name":"Varde","postal_code":"6800","type":"postal_code"}],"slug":"6800-varde","key":"varde"},{"type":"postal_district","name":"Hedensted","id":"8722","postal_codes":[{"postal_name":"Hedensted","postal_code":"8722","type":"postal_code"}],"slug":"8722-hedensted","key":"hedensted"},{"type":"postal_district","name":"Horsens","id":"8700","postal_codes":[{"postal_name":"Horsens","postal_code":"8700","type":"postal_code"}],"slug":"8700-horsens","key":"horsens"},{"type":"postal_district","name":"Esbjerg","id":"6700","postal_codes":[{"postal_name":"Esbjerg","postal_code":"6700","type":"postal_code"}],"slug":"6700-esbjerg","key":"esbjerg"},{"type":"postal_district","name":"Fredericia","id":"7000","postal_codes":[{"postal_name":"Fredericia","postal_code":"7000","type":"postal_code"}],"slug":"7000-fredericia","key":"fredericia"},{"type":"postal_district","name":"Kolding","id":"6000","postal_codes":[{"postal_name":"Kolding","postal_code":"6000","type":"postal_code"}],"slug":"6000-kolding","key":"kolding"},{"type":"postal_district","name":"Vejle","id":"7100","postal_codes":[{"postal_name":"Vejle","postal_code":"7100","type":"postal_code"}],"slug":"7100-vejle","key":"vejle"},{"type":"postal_district","name":"Rødekro","id":"6230","postal_codes":[{"postal_name":"Rødekro","postal_code":"6230","type":"postal_code"}],"slug":"6230-rodekro","key":"rodekro"}],"slug":"sydjylland"}},
{"id":"sydsj","key":"sydsj","value":{"rev":"1-aec26251a566dd10482e2ff6118745a2"},"doc":{"_id":"sydsj","_rev":"1-aec26251a566dd10482e2ff6118745a2","type":"area","id":"sydsj","name":"Sydsjælland","postal_districts":[{"type":"postal_district","name":"Væggerløse","id":"4873","postal_codes":[{"postal_name":"Væggerløse","postal_code":"4873","type":"postal_code"}],"slug":"4873-vaeggerlose","key":"vaeggerlose"},{"type":"postal_district","name":"Gedser","id":"4874","postal_codes":[{"postal_name":"Gedser","postal_code":"4874","type":"postal_code"}],"slug":"4874-gedser","key":"gedser"},{"type":"postal_district","name":"Kettinge","id":"4892","postal_codes":[{"postal_name":"Kettinge","postal_code":"4892","type":"postal_code"}],"slug":"4892-kettinge","key":"kettinge"},{"type":"postal_district","name":"Øster Ulslev","id":"4894","postal_codes":[{"postal_name":"Øster Ulslev","postal_code":"4894","type":"postal_code"}],"slug":"4894-oster-ulslev","key":"oster-ulslev"},{"type":"postal_district","name":"Errindlev","id":"4895","postal_codes":[{"postal_name":"Errindlev","postal_code":"4895","type":"postal_code"}],"slug":"4895-errindlev","key":"errindlev"},{"type":"postal_district","name":"Harpelunde","id":"4912","postal_codes":[{"postal_name":"Harpelunde","postal_code":"4912","type":"postal_code"}],"slug":"4912-harpelunde","key":"harpelunde"},{"type":"postal_district","name":"Horslunde","id":"4913","postal_codes":[{"postal_name":"Horslunde","postal_code":"4913","type":"postal_code"}],"slug":"4913-horslunde","key":"horslunde"},{"type":"postal_district","name":"Søllested","id":"4920","postal_codes":[{"postal_name":"Søllested","postal_code":"4920","type":"postal_code"}],"slug":"4920-sollested","key":"sollested"},{"type":"postal_district","name":"Bandholm","id":"4941","postal_codes":[{"postal_name":"Bandholm","postal_code":"4941","type":"postal_code"}],"slug":"4941-bandholm","key":"bandholm"},{"type":"postal_district","name":"Torrig L","id":"4943","postal_codes":[{"postal_name":"Torrig L","postal_code":"4943","type":"postal_code"}],"slug":"4943-torrig-l","key":"torrig-l"},{"type":"postal_district","name":"Fejø","id":"4944","postal_codes":[{"postal_name":"Fejø","postal_code":"4944","type":"postal_code"}],"slug":"4944-fejo","key":"fejo"},{"type":"postal_district","name":"Nørreballe","id":"4951","postal_codes":[{"postal_name":"Nørreballe","postal_code":"4951","type":"postal_code"}],"slug":"4951-norreballe","key":"norreballe"},{"type":"postal_district","name":"Stokkemarke","id":"4952","postal_codes":[{"postal_name":"Stokkemarke","postal_code":"4952","type":"postal_code"}],"slug":"4952-stokkemarke","key":"stokkemarke"},{"type":"postal_district","name":"Vesterborg","id":"4953","postal_codes":[{"postal_name":"Vesterborg","postal_code":"4953","type":"postal_code"}],"slug":"4953-vesterborg","key":"vesterborg"},{"type":"postal_district","name":"Dannemare","id":"4983","postal_codes":[{"postal_name":"Dannemare","postal_code":"4983","type":"postal_code"}],"slug":"4983-dannemare","key":"dannemare"},{"type":"postal_district","name":"Herlufmagle","id":"4160","postal_codes":[{"postal_name":"Herlufmagle","postal_code":"4160","type":"postal_code"}],"slug":"4160-herlufmagle","key":"herlufmagle"},{"type":"postal_district","name":"Rude","id":"4243","postal_codes":[{"postal_name":"Rude","postal_code":"4243","type":"postal_code"}],"slug":"4243-rude","key":"rude"},{"type":"postal_district","name":"Glumsø","id":"4171","postal_codes":[{"postal_name":"Glumsø","postal_code":"4171","type":"postal_code"}],"slug":"4171-glumso","key":"glumso"},{"type":"postal_district","name":"Sandved","id":"4262","postal_codes":[{"postal_name":"Sandved","postal_code":"4262","type":"postal_code"}],"slug":"4262-sandved","key":"sandved"},{"type":"postal_district","name":"Rødby","id":"4970","postal_codes":[{"postal_name":"Rødby","postal_code":"4970","type":"postal_code"}],"slug":"4970-rodby","key":"rodby"},{"type":"postal_district","name":"Karise","id":"4653","postal_codes":[{"postal_name":"Karise","postal_code":"4653","type":"postal_code"}],"slug":"4653-karise","key":"karise"},{"type":"postal_district","name":"Strøby","id":"4671","postal_codes":[{"postal_name":"Strøby","postal_code":"4671","type":"postal_code"}],"slug":"4671-stroby","key":"stroby"},{"type":"postal_district","name":"Klippinge","id":"4672","postal_codes":[{"postal_name":"Klippinge","postal_code":"4672","type":"postal_code"}],"slug":"4672-klippinge","key":"klippinge"},{"type":"postal_district","name":"Rødvig Stevns","id":"4673","postal_codes":[{"postal_name":"Rødvig Stevns","postal_code":"4673","type":"postal_code"}],"slug":"4673-rodvig-stevns","key":"rodvig-stevns"},{"type":"postal_district","name":"Mern","id":"4735","postal_codes":[{"postal_name":"Mern","postal_code":"4735","type":"postal_code"}],"slug":"4735-mern","key":"mern"},{"type":"postal_district","name":"Karrebæksminde","id":"4736","postal_codes":[{"postal_name":"Karrebæksminde","postal_code":"4736","type":"postal_code"}],"slug":"4736-karrebaeksminde","key":"karrebaeksminde"},{"type":"postal_district","name":"Lundby","id":"4750","postal_codes":[{"postal_name":"Lundby","postal_code":"4750","type":"postal_code"}],"slug":"4750-lundby","key":"lundby"},{"type":"postal_district","name":"Kalvehave","id":"4771","postal_codes":[{"postal_name":"Kalvehave","postal_code":"4771","type":"postal_code"}],"slug":"4771-kalvehave","key":"kalvehave"},{"type":"postal_district","name":"Langebæk","id":"4772","postal_codes":[{"postal_name":"Langebæk","postal_code":"4772","type":"postal_code"}],"slug":"4772-langebaek","key":"langebaek"},{"type":"postal_district","name":"Stensved","id":"4773","postal_codes":[{"postal_name":"Stensved","postal_code":"4773","type":"postal_code"}],"slug":"4773-stensved","key":"stensved"},{"type":"postal_district","name":"Borre","id":"4791","postal_codes":[{"postal_name":"Borre","postal_code":"4791","type":"postal_code"}],"slug":"4791-borre","key":"borre"},{"type":"postal_district","name":"Askeby","id":"4792","postal_codes":[{"postal_name":"Askeby","postal_code":"4792","type":"postal_code"}],"slug":"4792-askeby","key":"askeby"},{"type":"postal_district","name":"Bogø By","id":"4793","postal_codes":[{"postal_name":"Bogø By","postal_code":"4793","type":"postal_code"}],"slug":"4793-bogo-by","key":"bogo-by"},{"type":"postal_district","name":"Rønnede","id":"4683","postal_codes":[{"postal_name":"Rønnede","postal_code":"4683","type":"postal_code"}],"slug":"4683-ronnede","key":"ronnede"},{"type":"postal_district","name":"Store Heddinge","id":"4660","postal_codes":[{"postal_name":"Store Heddinge","postal_code":"4660","type":"postal_code"}],"slug":"4660-store-heddinge","key":"store-heddinge"},{"type":"postal_district","name":"Bjæverskov","id":"4632","postal_codes":[{"postal_name":"Bjæverskov","postal_code":"4632","type":"postal_code"}],"slug":"4632-bjaeverskov","key":"bjaeverskov"},{"type":"postal_district","name":"Nørre Alslev","id":"4840","postal_codes":[{"postal_name":"Nørre Alslev","postal_code":"4840","type":"postal_code"}],"slug":"4840-norre-alslev","key":"norre-alslev"},{"type":"postal_district","name":"Guldborg","id":"4862","postal_codes":[{"postal_name":"Guldborg","postal_code":"4862","type":"postal_code"}],"slug":"4862-guldborg","key":"guldborg"},{"type":"postal_district","name":"Eskilstrup","id":"4863","postal_codes":[{"postal_name":"Eskilstrup","postal_code":"4863","type":"postal_code"}],"slug":"4863-eskilstrup","key":"eskilstrup"},{"type":"postal_district","name":"Horbelev","id":"4871","postal_codes":[{"postal_name":"Horbelev","postal_code":"4871","type":"postal_code"}],"slug":"4871-horbelev","key":"horbelev"},{"type":"postal_district","name":"Idestrup","id":"4872","postal_codes":[{"postal_name":"Idestrup","postal_code":"4872","type":"postal_code"}],"slug":"4872-idestrup","key":"idestrup"},{"type":"postal_district","name":"Tappernøje","id":"4733","postal_codes":[{"postal_name":"Tappernøje","postal_code":"4733","type":"postal_code"}],"slug":"4733-tappernoje","key":"tappernoje"},{"type":"postal_district","name":"Stubbekøbing","id":"4850","postal_codes":[{"postal_name":"Stubbekøbing","postal_code":"4850","type":"postal_code"}],"slug":"4850-stubbekobing","key":"stubbekobing"},{"type":"postal_district","name":"Holeby","id":"4960","postal_codes":[{"postal_name":"Holeby","postal_code":"4960","type":"postal_code"}],"slug":"4960-holeby","key":"holeby"},{"type":"postal_district","name":"Toreby L","id":"4891","postal_codes":[{"postal_name":"Toreby L","postal_code":"4891","type":"postal_code"}],"slug":"4891-toreby-l","key":"toreby-l"},{"type":"postal_district","name":"Hårlev","id":"4652","postal_codes":[{"postal_name":"Hårlev","postal_code":"4652","type":"postal_code"}],"slug":"4652-haarlev","key":"haarlev"},{"type":"postal_district","name":"Sakskøbing","id":"4990","postal_codes":[{"postal_name":"Sakskøbing","postal_code":"4990","type":"postal_code"}],"slug":"4990-sakskobing","key":"sakskobing"},{"type":"postal_district","name":"Stege","id":"4780","postal_codes":[{"postal_name":"Stege","postal_code":"4780","type":"postal_code"}],"slug":"4780-stege","key":"stege"},{"type":"postal_district","name":"Fuglebjerg","id":"4250","postal_codes":[{"postal_name":"Fuglebjerg","postal_code":"4250","type":"postal_code"}],"slug":"4250-fuglebjerg","key":"fuglebjerg"},{"type":"postal_district","name":"Vordingborg","id":"4760","postal_codes":[{"postal_name":"Vordingborg","postal_code":"4760","type":"postal_code"}],"slug":"4760-vordingborg","key":"vordingborg"},{"type":"postal_district","name":"Herfølge","id":"4681","postal_codes":[{"postal_name":"Herfølge","postal_code":"4681","type":"postal_code"}],"slug":"4681-herfolge","key":"herfolge"},{"type":"postal_district","name":"Tureby","id":"4682","postal_codes":[{"postal_name":"Tureby","postal_code":"4682","type":"postal_code"}],"slug":"4682-tureby","key":"tureby"},{"type":"postal_district","name":"Præstø","id":"4720","postal_codes":[{"postal_name":"Præstø","postal_code":"4720","type":"postal_code"}],"slug":"4720-praesto","key":"praesto"},{"type":"postal_district","name":"Nakskov","id":"4900","postal_codes":[{"postal_name":"Nakskov","postal_code":"4900","type":"postal_code"}],"slug":"4900-nakskov","key":"nakskov"},{"type":"postal_district","name":"Solrød","id":"2680","postal_codes":[{"postal_name":"Solrød Strand","postal_code":"2680","type":"postal_code"}],"slug":"2680-solrod","key":"solrod"},{"type":"postal_district","name":"Maribo","id":"4930","postal_codes":[{"postal_name":"Maribo","postal_code":"4930","type":"postal_code"}],"slug":"4930-maribo","key":"maribo"},{"type":"postal_district","name":"Holmegaard","id":"4684","postal_codes":[{"postal_name":"Holmegaard","postal_code":"4684","type":"postal_code"}],"slug":"4684-holmegaard","key":"holmegaard"},{"type":"postal_district","name":"Nysted","id":"4880","postal_codes":[{"postal_name":"Nysted","postal_code":"4880","type":"postal_code"}],"slug":"4880-nysted","key":"nysted"},{"type":"postal_district","name":"Faxe","id":"4640","postal_codes":[{"postal_name":"Faxe","postal_code":"4640","type":"postal_code"}],"slug":"4640-faxe","key":"faxe"},{"type":"postal_district","name":"Nykøbing F","id":"4800","postal_codes":[{"postal_name":"Nykøbing F","postal_code":"4800","type":"postal_code"}],"slug":"4800-nykobing-f","key":"nykobing-f"},{"type":"postal_district","name":"Haslev","id":"4690","postal_codes":[{"postal_name":"Haslev","postal_code":"4690","type":"postal_code"}],"slug":"4690-haslev","key":"haslev"},{"type":"postal_district","name":"Faxe Ladeplads","id":"4654","postal_codes":[{"postal_name":"Faxe Ladeplads","postal_code":"4654","type":"postal_code"}],"slug":"4654-faxe-ladeplads","key":"faxe-ladeplads"},{"type":"postal_district","name":"Køge","id":"4600","postal_codes":[{"postal_name":"Køge","postal_code":"4600","type":"postal_code"}],"slug":"4600-koge","key":"koge"},{"type":"postal_district","name":"Næstved","id":"4700","postal_codes":[{"postal_name":"Næstved","postal_code":"4700","type":"postal_code"}],"slug":"4700-naestved","key":"naestved"}],"slug":"sydsjaelland"}},
{"id":"vestjl","key":"vestjl","value":{"rev":"1-d1a5f1777ea67037068f27d4b0106095"},"doc":{"_id":"vestjl","_rev":"1-d1a5f1777ea67037068f27d4b0106095","type":"area","id":"vestjl","name":"Vestjylland","postal_districts":[{"type":"postal_district","name":"Ølgod","id":"6870","postal_codes":[{"postal_name":"Ølgod","postal_code":"6870","type":"postal_code"}],"slug":"6870-olgod","key":"olgod"},{"type":"postal_district","name":"Hemmet","id":"6893","postal_codes":[{"postal_name":"Hemmet","postal_code":"6893","type":"postal_code"}],"slug":"6893-hemmet","key":"hemmet"},{"type":"postal_district","name":"Lem St","id":"6940","postal_codes":[{"postal_name":"Lem St","postal_code":"6940","type":"postal_code"}],"slug":"6940-lem-st","key":"lem-st"},{"type":"postal_district","name":"Hvide Sande","id":"6960","postal_codes":[{"postal_name":"Hvide Sande","postal_code":"6960","type":"postal_code"}],"slug":"6960-hvide-sande","key":"hvide-sande"},{"type":"postal_district","name":"Ulfborg","id":"6990","postal_codes":[{"postal_name":"Ulfborg","postal_code":"6990","type":"postal_code"}],"slug":"6990-ulfborg","key":"ulfborg"},{"type":"postal_district","name":"Sønder Omme","id":"7260","postal_codes":[{"postal_name":"Sønder Omme","postal_code":"7260","type":"postal_code"}],"slug":"7260-sonder-omme","key":"sonder-omme"},{"type":"postal_district","name":"Stakroge","id":"7270","postal_codes":[{"postal_name":"Stakroge","postal_code":"7270","type":"postal_code"}],"slug":"7270-stakroge","key":"stakroge"},{"type":"postal_district","name":"Sønder Felding","id":"7280","postal_codes":[{"postal_name":"Sønder Felding","postal_code":"7280","type":"postal_code"}],"slug":"7280-sonder-felding","key":"sonder-felding"},{"type":"postal_district","name":"Brande","id":"7330","postal_codes":[{"postal_name":"Brande","postal_code":"7330","type":"postal_code"}],"slug":"7330-brande","key":"brande"},{"type":"postal_district","name":"Tarm","id":"6880","postal_codes":[{"postal_name":"Tarm","postal_code":"6880","type":"postal_code"}],"slug":"6880-tarm","key":"tarm"},{"type":"postal_district","name":"Ejstrupholm","id":"7361","postal_codes":[{"postal_name":"Ejstrupholm","postal_code":"7361","type":"postal_code"}],"slug":"7361-ejstrupholm","key":"ejstrupholm"},{"type":"postal_district","name":"Hampen","id":"7362","postal_codes":[{"postal_name":"Hampen","postal_code":"7362","type":"postal_code"}],"slug":"7362-hampen","key":"hampen"},{"type":"postal_district","name":"Engesvang","id":"7442","postal_codes":[{"postal_name":"Engesvang","postal_code":"7442","type":"postal_code"}],"slug":"7442-engesvang","key":"engesvang"},{"type":"postal_district","name":"Sunds","id":"7451","postal_codes":[{"postal_name":"Sunds","postal_code":"7451","type":"postal_code"}],"slug":"7451-sunds","key":"sunds"},{"type":"postal_district","name":"Haderup","id":"7540","postal_codes":[{"postal_name":"Haderup","postal_code":"7540","type":"postal_code"}],"slug":"7540-haderup","key":"haderup"},{"type":"postal_district","name":"Sørvad","id":"7550","postal_codes":[{"postal_name":"Sørvad","postal_code":"7550","type":"postal_code"}],"slug":"7550-sorvad","key":"sorvad"},{"type":"postal_district","name":"Hjerm","id":"7560","postal_codes":[{"postal_name":"Hjerm","postal_code":"7560","type":"postal_code"}],"slug":"7560-hjerm","key":"hjerm"},{"type":"postal_district","name":"Bøvlingbjerg","id":"7650","postal_codes":[{"postal_name":"Bøvlingbjerg","postal_code":"7650","type":"postal_code"}],"slug":"7650-bovlingbjerg","key":"bovlingbjerg"},{"type":"postal_district","name":"Bækmarksbro","id":"7660","postal_codes":[{"postal_name":"Bækmarksbro","postal_code":"7660","type":"postal_code"}],"slug":"7660-baekmarksbro","key":"baekmarksbro"},{"type":"postal_district","name":"Harboøre","id":"7673","postal_codes":[{"postal_name":"Harboøre","postal_code":"7673","type":"postal_code"}],"slug":"7673-harboore","key":"harboore"},{"type":"postal_district","name":"Thyborøn","id":"7680","postal_codes":[{"postal_name":"Thyborøn","postal_code":"7680","type":"postal_code"}],"slug":"7680-thyboron","key":"thyboron"},{"type":"postal_district","name":"Vinderup","id":"7830","postal_codes":[{"postal_name":"Vinderup","postal_code":"7830","type":"postal_code"}],"slug":"7830-vinderup","key":"vinderup"},{"type":"postal_district","name":"Højslev","id":"7840","postal_codes":[{"postal_name":"Højslev","postal_code":"7840","type":"postal_code"}],"slug":"7840-hojslev","key":"hojslev"},{"type":"postal_district","name":"Stoholm Jyll","id":"7850","postal_codes":[{"postal_name":"Stoholm Jyll","postal_code":"7850","type":"postal_code"}],"slug":"7850-stoholm-jyll","key":"stoholm-jyll"},{"type":"postal_district","name":"Spøttrup","id":"7860","postal_codes":[{"postal_name":"Spøttrup","postal_code":"7860","type":"postal_code"}],"slug":"7860-spottrup","key":"spottrup"},{"type":"postal_district","name":"Fur","id":"7884","postal_codes":[{"postal_name":"Fur","postal_code":"7884","type":"postal_code"}],"slug":"7884-fur","key":"fur"},{"type":"postal_district","name":"Løgstrup","id":"8831","postal_codes":[{"postal_name":"Løgstrup","postal_code":"8831","type":"postal_code"}],"slug":"8831-logstrup","key":"logstrup"},{"type":"postal_district","name":"Bording","id":"7441","postal_codes":[{"postal_name":"Bording","postal_code":"7441","type":"postal_code"}],"slug":"7441-bording","key":"bording"},{"type":"postal_district","name":"Ringkøbing","id":"6950","postal_codes":[{"postal_name":"Ringkøbing","postal_code":"6950","type":"postal_code"}],"slug":"6950-ringkobing","key":"ringkobing"},{"type":"postal_district","name":"Vemb","id":"7570","postal_codes":[{"postal_name":"Vemb","postal_code":"7570","type":"postal_code"}],"slug":"7570-vemb","key":"vemb"},{"type":"postal_district","name":"Ørnhøj","id":"6973","postal_codes":[{"postal_name":"Ørnhøj","postal_code":"6973","type":"postal_code"}],"slug":"6973-ornhoj","key":"ornhoj"},{"type":"postal_district","name":"Tim","id":"6980","postal_codes":[{"postal_name":"Tim","postal_code":"6980","type":"postal_code"}],"slug":"6980-tim","key":"tim"},{"type":"postal_district","name":"Spjald","id":"6971","postal_codes":[{"postal_name":"Spjald","postal_code":"6971","type":"postal_code"}],"slug":"6971-spjald","key":"spjald"},{"type":"postal_district","name":"Kibæk","id":"6933","postal_codes":[{"postal_name":"Kibæk","postal_code":"6933","type":"postal_code"}],"slug":"6933-kibaek","key":"kibaek"},{"type":"postal_district","name":"Skive","id":"7800","postal_codes":[{"postal_name":"Skive","postal_code":"7800","type":"postal_code"}],"slug":"7800-skive","key":"skive"},{"type":"postal_district","name":"Roslev","id":"7870","postal_codes":[{"postal_name":"Roslev","postal_code":"7870","type":"postal_code"}],"slug":"7870-roslev","key":"roslev"},{"type":"postal_district","name":"Vildbjerg","id":"7480","postal_codes":[{"postal_name":"Vildbjerg","postal_code":"7480","type":"postal_code"}],"slug":"7480-vildbjerg","key":"vildbjerg"},{"type":"postal_district","name":"Videbæk","id":"6920","postal_codes":[{"postal_name":"Videbæk","postal_code":"6920","type":"postal_code"}],"slug":"6920-videbaek","key":"videbaek"},{"type":"postal_district","name":"Struer","id":"7600","postal_codes":[{"postal_name":"Struer","postal_code":"7600","type":"postal_code"}],"slug":"7600-struer","key":"struer"},{"type":"postal_district","name":"Ikast","id":"7430","postal_codes":[{"postal_name":"Ikast","postal_code":"7430","type":"postal_code"}],"slug":"7430-ikast","key":"ikast"},{"type":"postal_district","name":"Aulum","id":"7490","postal_codes":[{"postal_name":"Aulum","postal_code":"7490","type":"postal_code"}],"slug":"7490-aulum","key":"aulum"},{"type":"postal_district","name":"Karup J","id":"7470","postal_codes":[{"postal_name":"Karup J","postal_code":"7470","type":"postal_code"}],"slug":"7470-karup-j","key":"karup-j"},{"type":"postal_district","name":"Holstebro","id":"7500","postal_codes":[{"postal_name":"Holstebro","postal_code":"7500","type":"postal_code"}],"slug":"7500-holstebro","key":"holstebro"},{"type":"postal_district","name":"Viborg","id":"8800","postal_codes":[{"postal_name":"Viborg","postal_code":"8800","type":"postal_code"}],"slug":"8800-viborg","key":"viborg"},{"type":"postal_district","name":"Lemvig","id":"7620","postal_codes":[{"postal_name":"Lemvig","postal_code":"7620","type":"postal_code"}],"slug":"7620-lemvig","key":"lemvig"},{"type":"postal_district","name":"Skjern","id":"6900","postal_codes":[{"postal_name":"Skjern","postal_code":"6900","type":"postal_code"}],"slug":"6900-skjern","key":"skjern"},{"type":"postal_district","name":"Herning","id":"7400","postal_codes":[{"postal_name":"Herning","postal_code":"7400","type":"postal_code"}],"slug":"7400-herning","key":"herning"}],"slug":"vestjylland"}}
]}
